{"type":"FeatureCollection","crs":{"type":"name","properties":{"name":"EPSG:27700"}},"features":[{"type":"Feature","geometry":{"type":"Polygon","coordinates":[[[441238.9643,333954.5451],[440270.1976,333833.9004],[439198.8014,332054.4998],[438902.9027,329886.3004],[437380.6995,329455.103800001],[436168.9971,330697.498199999],[434178.2448,330370.7722],[433532.8037,332045.3024],[430933.4987,332550.297800001],[429897.3,335336.699999999],[430748.999,336405.804199999],[433161.8996,337895.097899999],[433988.0959,341063.301000001],[435379.49,341076.59],[435804.2026,339383.5019],[439786.8969,339376.8038],[438813.4025,337736.703299999],[441570.8973,336678.2962],[441238.9643,333954.5451]]]},"properties":{"LAD24CD":"E06000015"}},{"type":"Feature","geometry":{"type":"Polygon","coordinates":[[[464453.3988,306785.7029],[464594.9995,304520.701199999],[463026.5003,302658.6042],[461260.1032,302460.900800001],[460812.0995,300165.797800001],[459690.9031,300333.5998],[458115.2967,299255.6983],[457726.303,298472.2026],[456948.8019,298630.6972],[457144.8035,299555.4025],[456035.6037,299776.699200001],[456600.75,302027.800000001],[453156.7994,304373.303400001],[453737.6969,305275.6951],[454863.4034,305044.101399999],[455201.0963,307300.695499999],[455664.89,309237.939999999],[457057.1998,310757.296],[458008.4984,310282.8018],[458986.6018,307872.901699999],[459680.2011,308748.700999999],[462642.297,308389.7037],[464453.3988,306785.7029]]]},"properties":{"LAD24CD":"E06000016"}},{"type":"Feature","geometry":{"type":"Polygon","coordinates":[[[501933.204,305782.100199999],[500427.59,305996.289999999],[498904.6034,304131.9025],[498101.32,301383.5],[498713.9,300444.9],[497768.35,300608.76],[496851.2039,299621.8035],[496180.5,300730.17],[495708.21,299709.460000001],[494740.5,299897.390000001],[490855.7995,297631.103399999],[487368.1963,292674.102299999],[485403.2993,294255.1997],[485611.7015,295304.3994],[484155.2032,297061.896299999],[483756.9,299012.4],[481888.7019,300662.5956],[479959.4977,300501.7017],[480939.3985,303213.995300001],[480693.969,306039.656400001],[482457.7018,308668.204],[482140.2,311474.41],[479688.4991,313761.796],[480225.6978,315267.605],[482692.9004,316956.101600001],[484379.9966,316181.5034],[490252.7969,318512.0962],[493877.5979,318926.897500001],[494224.5995,317895.602700001],[496433.0968,318229.997],[498670.6003,316638.3026],[498538.5969,314953.105],[501805.3973,313503.799799999],[506145.1027,313125.598099999],[505953.6029,310704.801100001],[504488.9998,309191.904100001],[501100.6012,307911.2007],[499943.8026,308522.4957],[501933.204,305782.100199999]]]},"properties":{"LAD24CD":"E06000017"}},{"type":"Feature","geometry":{"type":"Polygon","coordinates":[[[461502.104,339409.104499999],[460600.1025,338663.9978],[458442.9967,338730.998600001],[457777.1008,337518.4957],[457071.1009,338070.4977],[456697.5,333950.699999999],[455502.52,332712.17],[452968.5976,334395.6996],[453162.2989,335258.7026],[453965.2029,334970.0952],[455078.8963,335856.8014],[450694.1975,339798.403100001],[451678.8969,341416.1],[450661.2008,343285.604900001],[452052.2993,342921.999],[453575.8943,343647.0878],[452514.05,344073.199999999],[452086.14,345925.76],[453090.65,347047],[454920.7972,347117.797900001],[457567.6789,345806.986500001],[456900.2962,344761.602399999],[457937.0962,344513.4034],[457664.3001,343558.296800001],[458990.7985,343260.402100001],[459192.0027,341522.5996],[461502.104,339409.104499999]]]},"properties":{"LAD24CD":"E06000018"}},{"type":"Feature","geometry":{"type":"Polygon","coordinates":[[[357953.97,267826.390000001],[354875.21,267520.49],[356448.42,265544.050000001],[359305.5033,264997.5046],[357214.3002,262740.1008],[357148.2985,260427.9026],[360898.5975,261771.3981],[363802.4998,261809.8971],[364192.72,261238.68],[366264.07,262196.35],[365770.802,264484.701400001],[369304.0992,265310.494999999],[370891.2982,263690.998600001],[368144.2995,262087.0977],[367682.8976,260457.304199999],[368341.85,259677.060000001],[371205.68,259977.91],[373853.18,258625.880000001],[372503.71,258217.07],[373263.897,256781.6964],[372220.5,256134.1],[371231.96,252759.01],[370332.5564,252305.152899999],[371698.11,249732.76],[374141.18,250819.550000001],[376049.9032,249649.697899999],[375976.5963,245074.297599999],[376941.1036,243556.901900001],[375985.097,235939.5024],[373131.4978,235019.795600001],[372700.8006,233152.100299999],[371726.1024,232928.904100001],[370073.6025,233280.803400001],[370135.9,235242.1],[368295.05,235168.83],[368255.83,236192.970000001],[367233.4016,236119.800799999],[366326.6015,234472.102399999],[367758.1997,233024.8967],[366105.502,231516.398499999],[366276.0016,229630.2984],[365678.2017,229242.8993],[368099.657,228236.3453],[368050.5037,225597.2028],[369272.1002,224554.4013],[369870.61,222183.17],[366519.4041,220317.6041],[365089.2982,220855.9],[363486.4996,218153.703500001],[360103.26,218270.49],[359951.1987,216935.702099999],[358689.9023,217684.3978],[357003.3008,215779.703],[356232.7009,216245.899599999],[355272.7037,214366.797499999],[354193.6973,215433.102299999],[352324.6986,215252.304],[352060.296,216474.804099999],[350827.2966,215978.995999999],[350524.1984,216941.425000001],[349189.0029,215591.8968],[346471.1999,218872.897600001],[347210.72,220487.42],[342576.61,223387.050000001],[342189.96,224690.08],[340814.57,224289.210000001],[341985.75,225177.359999999],[339743.1971,226508.402000001],[333237.0029,223383.896400001],[332939.1006,225891.6985],[330775.4976,225881.2015],[329598.5,229250.5],[326792.584,232168.288699999],[324673.6989,236599.603399999],[325588.8018,238533.5998],[325311.0009,239685.699999999],[322937.8002,242814.304500001],[323200.9,245573.35],[324391.73,245807.49],[324440.13,247066.52],[321926.2961,248343.1019],[322357.7025,249453.404100001],[325255.2973,250120.6031],[326721.5,251374.404200001],[326049.0988,252193.5997],[324916.5984,251285.7995],[323321.5006,252276.495999999],[325255.6023,254507.7973],[324779.5985,256626.300799999],[326846.0994,257748.5996],[326818.998,260284.3037],[328790.4992,260483.5967],[328530.1036,261856.3038],[329390.8963,262569.6996],[331456.0037,263375.198999999],[333400.6014,262839.802200001],[335295.0031,263902.798],[331012.03,265044.220000001],[331879.3959,269766.6993],[334212.5997,270589.7039],[335069.5007,272770.499600001],[336535.3984,272851.1965],[336160.2975,274080.4047],[337036.6981,274729.5988],[338762.2987,274738.396299999],[337309.1973,275633.0002],[337639.7996,276868.196699999],[339296.45,275489.970000001],[339630.32,276718.970000001],[341915.63,277838.99],[344415.3022,277336.602600001],[345281.9983,276995.600199999],[345137.6025,275624.4027],[346145.9982,275543.3959],[346129.302,273494.5024],[350192.19,273301.68],[349098.67,271020.09],[347835.69,271172.699999999],[351401.26,268096.779999999],[353751.4982,268428.8024],[353121.1962,268944.504799999],[354783.15,271785.439999999],[357569.8,269436.130000001],[357953.97,267826.390000001]]]},"properties":{"LAD24CD":"E06000019"}},{"type":"Feature","geometry":{"type":"Polygon","coordinates":[[[379018.7577,315956.315099999],[378783.41,315078.789999999],[375937.6,314903.720000001],[374674.2972,315839.101399999],[371756.502,307322.3993],[371787.2973,304083.1965],[370541.6005,303347.3971],[370433.94,301954.68],[366133.898,303590.1976],[363000.61,306462.560000001],[362523.5011,308297.700099999],[358023.26,311441.17],[359742.4008,313565.5022],[355515.5,315101.23],[355321.04,318293.48],[356707.78,319023.34],[357425.03,318182.43],[358204.89,320054.77],[360144.05,320077.76],[359767.89,322436.73],[360810.35,323273.82],[362897.85,322914.5],[364109.08,321957.970000001],[363848.66,320965.25],[364905.45,322498.289999999],[366185.79,322233.970000001],[367299.7991,323186.3982],[367928.1964,322529.496300001],[367067.4038,320710.297],[368204.9996,320418.9004],[369324.2996,320830.4026],[368228.8031,324910.9046],[372043.6032,325577.3038],[374641.6962,323853.8971],[375058.77,322034.18],[374131.08,321403.27],[379018.7577,315956.315099999]]]},"properties":{"LAD24CD":"E06000020"}},{"type":"Feature","geometry":{"type":"Polygon","coordinates":[[[387965.24,354750.300000001],[388597.8968,354704.5963],[389302.9,352548.85],[391695.7042,351935.6634],[392281.6994,350089.997199999],[391262.8984,350013.9989],[391795.25,347149.1],[393154.9997,345953.101299999],[393048.9,344484.85],[394156.11,344417.460000001],[393920.95,343138.65],[394776.1024,341906.299699999],[394178.8665,341834.4945],[394641.36,341061.17],[391924.2018,339862.004899999],[391339.7011,341541.7041],[390312.8035,342092.5964],[389173.3031,339564.800000001],[388218.08,339603.58],[387897.05,338766.119999999],[385828.5012,342600.4246],[386377.5018,342690.395300001],[385637.5487,346462.070599999],[386512.1024,346979.797499999],[384100.6034,352925.5955],[386799.81,355074.84],[387965.24,354750.300000001]]]},"properties":{"LAD24CD":"E06000021"}},{"type":"Feature","geometry":{"type":"Polygon","coordinates":[[[374602.2024,332762.2972],[373571.6027,326638.200200001],[372043.6032,325577.3038],[368228.8031,324910.9046],[369324.2996,320830.4026],[368204.9996,320418.9004],[367067.4038,320710.297],[367928.1964,322529.496300001],[367299.7991,323186.3982],[366185.79,322233.970000001],[364905.45,322498.289999999],[363848.66,320965.25],[364109.08,321957.970000001],[362897.85,322914.5],[360810.35,323273.82],[359767.89,322436.73],[360144.05,320077.76],[358204.89,320054.77],[357425.03,318182.43],[356707.78,319023.34],[355321.04,318293.48],[355515.5,315101.23],[359742.4008,313565.5022],[358023.26,311441.17],[362523.5011,308297.700099999],[363000.61,306462.560000001],[366133.898,303590.1976],[370433.94,301954.68],[370541.6005,303347.3971],[371787.2973,304083.1965],[371756.502,307322.3993],[374674.2972,315839.101399999],[375937.6,314903.720000001],[378783.41,315078.789999999],[379252.4993,313720.297900001],[378148.5021,312010.8972],[378476.3999,310903.904100001],[379610.4998,309514.6017],[383351.98,309510.310000001],[383951.9038,307356.6994],[383342.4041,306575.503],[384220.0002,306482.899599999],[384339.8009,305574.7995],[382749.9965,301364.704600001],[381027.3971,300934.5977],[378172.0994,301734.0989],[378282.6987,299584.804099999],[379754.4998,299510.6953],[382343.0038,296834.501399999],[380944.0972,295097.398600001],[382705.72,293794.390000001],[381833.797,292568.102600001],[382392.301,291833.402899999],[380321.0015,290459.496200001],[378860.6033,287966],[380567.9988,284188.9011],[378903.6013,282217.395500001],[375384.7988,282444.600400001],[374722.3,278277.539999999],[377258.44,276418.98],[375095.8012,276732.695499999],[373504.7023,276014.1011],[372160.5017,276647.299900001],[371861.08,274546.07],[367771.5,274452.48],[366834.3,273148.5],[367264.8977,270439.8967],[365123.103,270247.301899999],[365202.6018,271125.1006],[363367.3996,271920.302999999],[361786.302,270705.300799999],[361743,268256.4],[360923.89,268989.050000001],[357953.97,267826.390000001],[357569.8,269436.130000001],[354783.15,271785.439999999],[353121.1962,268944.504799999],[353751.4982,268428.8024],[351401.26,268096.779999999],[347835.69,271172.699999999],[349098.67,271020.09],[350192.19,273301.68],[346129.302,273494.5024],[346145.9982,275543.3959],[345137.6025,275624.4027],[345281.9983,276995.600199999],[344415.3022,277336.602600001],[341915.63,277838.99],[339630.32,276718.970000001],[339296.45,275489.970000001],[337639.7996,276868.196699999],[337309.1973,275633.0002],[338762.2987,274738.396299999],[337036.6981,274729.5988],[336160.2975,274080.4047],[336535.3984,272851.1965],[335069.5007,272770.499600001],[333725.597,273405.3979],[329236.4003,272313.8003],[327847.0003,272769.300000001],[324494.6986,276040.703500001],[321529.1975,277257.7951],[319907.74,279701.550000001],[317162.14,281060.08],[316113.8,283443.76],[318779.6016,287123.6011],[319932.2034,286876.002],[324674.9027,289582.1973],[330232.4037,289759.396600001],[330052.4964,292261.100500001],[331980.3979,291800.202400001],[332689.9019,295470.401799999],[331364.6979,298001.5973],[326374.3005,295385.7961],[326472.4992,293512.0024],[323227.15,292779.68],[322969.6014,293515.001599999],[324715.0974,294302.0963],[322893.7963,299265.4955],[324390.2007,299246.900800001],[326300.4989,300746.7015],[326041.8019,301844.5973],[327457.9983,304006.5984],[328365.56,304187.609999999],[326776.0988,305388.6028],[328981.11,306032.140000001],[329874.6999,309134.7005],[329327.904,310910.802100001],[331012.304,312600.1985],[331185.2029,314648.702099999],[332515.0983,314093.0012],[334075.5998,314774.2962],[334024.1012,313525.103700001],[335175.6971,313632.902899999],[334930.0025,315394.298699999],[333159.5983,315590.8024],[333129.3966,316696.8958],[331129.4993,317635.497199999],[331881.79,318351.76],[331468.83,319375.33],[330234.2,318993.630000001],[329999.91,319704.84],[329082.49,319517.199999999],[329409.45,319962.720000001],[327267.3973,319869.5977],[326472.2023,321567.1018],[326827.8036,322555.298900001],[324672.7013,321252.0019],[321823.6039,322650.401699999],[322359.401,323823.7958],[321349.0017,323946.9005],[321391.9997,325274.500499999],[322554.0009,327848.003900001],[321771.1983,328408.703400001],[324182.7962,330552.399700001],[322540.7016,331874.101399999],[323688.4966,332552.997099999],[322891.6032,333139.2992],[325141.3011,333527.698100001],[326423.11,337552.960000001],[327726.5977,336993.1961],[330515.41,337395.34],[332269.6016,340345.0966],[334130.0997,340652.898499999],[334614.5959,341735.0987],[335609.9974,339739.5999],[337669.6961,338322.795499999],[340474.8968,339828.304500001],[340728.3005,339169.802999999],[343580.3991,338688.8007],[346355.901,333443.202299999],[349317.5022,336623.0021],[351125.8008,336679.2959],[351448.1002,340216.103499999],[350715.9965,341650.302999999],[351298.6997,343127.000299999],[353161.3992,344461.998199999],[354804.3018,343358.704],[357635.4991,344557.500800001],[360154.2004,342637.500399999],[359950.4979,340792.298599999],[360701.2025,339937.6033],[362399.1986,340989.0023],[364516.9013,338994.1033],[365086.9,342013.300000001],[367776.62,340269.57],[370905.17,341442.220000001],[370775.9993,343300.7006],[374540.3974,344631.399700001],[375339.0965,342507.797499999],[374599.399,342145.201300001],[374149.903,339605.8982],[372360.98,340567.4],[372849.92,338956.77],[371531.48,339264.220000001],[370749.79,338585.560000001],[368432.8,334372.1],[370071.51,330817.32],[370459.1004,331618.604499999],[374602.2024,332762.2972]]]},"properties":{"LAD24CD":"E06000051"}},{"type":"Feature","geometry":{"type":"Polygon","coordinates":[[[501933.204,305782.100199999],[501955.9474,305785.7883],[503603.4967,303961.5013],[502228.5008,299296.896500001],[503186.1977,298398.4037],[507472.302,299057.904899999],[508056.4975,297436.2991],[507235.0009,296851.4965],[508526.1032,294623.5043],[507722.3994,293158.603599999],[511790.9001,291114.798599999],[511489.65,289253.470000001],[512757.5016,286735.5022],[510880.703,283686.9048],[511427.598,282987.1951],[507764.9027,280465.097100001],[506166.5976,277470.204299999],[502474.5994,276782.201300001],[502992.9004,276181.903100001],[502332.0011,274618.400699999],[503789.2991,273405.297900001],[503427.8027,272505.6954],[504563.799,272309.8015],[504689.396,270534.999500001],[500989.5979,269872.599099999],[501390.2997,269547.5022],[499542.6969,266755.601399999],[500321.8964,264597.199200001],[499618.3041,262988.5997],[498005.0013,262666.6018],[495381.2002,265434.0996],[491970.2019,264199.802999999],[493169.7017,259663.701400001],[491131.704,256034.000399999],[488587.7975,255602.6039],[486985.4029,260761.1972],[484589.63,261901.640000001],[482618.1012,261136.899700001],[481915.1026,262287.3004],[480684.1974,268598.503799999],[482838.2031,270972.904200001],[482421.5967,273786.398800001],[479685.3989,275966.604699999],[478991.97,277833.800000001],[476722.8001,278890.697699999],[475584.0005,278419.2027],[475786.5981,281176.9033],[477301.47,282408.779999999],[474568.4975,283251.6994],[474749.6992,285210.798599999],[476012.9992,286512.596000001],[474923.299,288235.402799999],[475993.6976,288946.8992],[475868.4963,291259.597200001],[476846.3028,292724.797800001],[480162.5983,291502.5976],[483228.3017,291857.9959],[484440.0041,291063.5033],[487368.1963,292674.102299999],[490855.7995,297631.103399999],[494740.5,299897.390000001],[495708.21,299709.460000001],[496180.5,300730.17],[496851.2039,299621.8035],[497768.35,300608.76],[498713.9,300444.9],[498101.32,301383.5],[498904.6034,304131.9025],[500427.59,305996.289999999],[501933.204,305782.100199999]]]},"properties":{"LAD24CD":"E06000061"}},{"type":"Feature","geometry":{"type":"Polygon","coordinates":[[[474749.6992,285210.798599999],[474568.4975,283251.6994],[477301.47,282408.779999999],[475786.5981,281176.9033],[475584.0005,278419.2027],[476722.8001,278890.697699999],[478991.97,277833.800000001],[479685.3989,275966.604699999],[482421.5967,273786.398800001],[482838.2031,270972.904200001],[480684.1974,268598.503799999],[481915.1026,262287.3004],[482618.1012,261136.899700001],[484589.63,261901.640000001],[486985.4029,260761.1972],[488587.7975,255602.6039],[485608.4035,252803.0952],[483673.502,252976.4956],[482740.3013,251024.704299999],[481669.8037,251635.499399999],[481256.22,250015.07],[480025.9035,250129.600500001],[480303.2014,248902.2018],[476716.96,248142.65],[476308,246792.800000001],[477377.7,246538.4],[477530.9974,245234.501700001],[479109.0032,244310.496200001],[480198.81,242158.32],[479645.8,241236.050000001],[478068.4023,240892.704500001],[478787.8004,239766.096999999],[477514.9,238579.699999999],[477101.6,237425.800000001],[476237.2,237593.699999999],[475162.8015,236430.2019],[471920.4972,243091.895],[470845.4979,241894.797700001],[466827.8762,242369.3731],[465741.76,242136.16],[466753.103,241040.0024],[464396.5986,240897.903000001],[460312.3004,238890.397700001],[459335.9038,236330.9003],[460619.8989,235588.003],[459529.201,233558.204],[457509.2023,233102.5045],[455301.7026,231300.000399999],[452176.4039,232252.197899999],[449307.5,231474.699999999],[449635.4987,235338.6044],[447211.2034,239450.7973],[448239.4037,242419.897399999],[446822.2014,242613.801899999],[446608.9017,243401.296499999],[451604.5017,244578.5995],[445790.299,252455.4047],[447050.4,254912.4014],[451017.1978,255770.695800001],[448939.5,260267.199999999],[450163.84,259924.220000001],[452454.5016,261951.296599999],[453623.18,263424.550000001],[452357.3995,266073.796499999],[454001.5966,268858.6994],[450161.2038,270281.801999999],[452290.94,272312.119999999],[456285.0003,273454.7038],[454419.7193,277932.977399999],[455626.98,277438.890000001],[457976.5983,278007.600500001],[459317.5998,280144.198899999],[462342.1025,282428.1951],[464700.998,280891.1951],[465748.5001,282471.1029],[465039.69,283524.310000001],[467978.0965,286356.8006],[471281.3978,287124.900699999],[471956.9981,286060.995300001],[474749.6992,285210.798599999]]]},"properties":{"LAD24CD":"E06000062"}},{"type":"Feature","geometry":{"type":"Polygon","coordinates":[[[442027.8963,356921.7016],[442909.3015,354987.5952],[444868.4023,353958.0999],[444027.1999,352232.004000001],[444613.7041,350838.203],[444901.21,348403.15],[446573.1073,345367.3521],[444897.9858,342518.6085],[442331.08,341929.74],[441359.9968,342947.2018],[439771.18,342344.699999999],[435090.67,342921.76],[435379.49,341076.59],[433988.0959,341063.301000001],[433161.8996,337895.097899999],[430748.999,336405.804199999],[428988.69,337687.720000001],[426703.61,337792.439999999],[426495.0009,338935.4001],[427005.7,340653.1984],[428909.01,341106.289999999],[428875.53,341932.02],[426806.9033,343194.301000001],[426992.1039,344639.6973],[428497.6026,345053.198899999],[428358.0961,346456.7972],[429164.3972,346351.397299999],[428533.5016,346791.3014],[429186.7,347327.398],[427943.6004,347088.496300001],[427019.0982,348204.9967],[428191.3975,349527.3982],[427481.8028,350906.9033],[430030.1038,352511.2041],[431335.0991,354513.7009],[432290.6028,354441.7015],[432773.2027,355237.603700001],[431492.5963,356020.7995],[431986.3023,358243.303300001],[433859.2998,359761.898600001],[437037.3009,356415.396500001],[442027.8963,356921.7016]]]},"properties":{"LAD24CD":"E07000032"}},{"type":"Feature","geometry":{"type":"Polygon","coordinates":[[[452887.6733,369248.523499999],[453760.1,365600.1],[450861.597,364883.502599999],[449576.0023,363293.397700001],[447508.09,364045.220000001],[445330.68,363012.529999999],[445476.3024,359488.9967],[446923.2034,356320.9036],[446350.8972,355728.0033],[446786.5992,354779.005000001],[444868.4023,353958.0999],[442909.3015,354987.5952],[442027.8963,356921.7016],[441721.0975,360061.3029],[443370.52,362598.02],[441656.5835,364247.5681],[443083.37,365565.140000001],[445635.32,365638.26],[446133.3018,368996.6952],[445536.8139,371605.227],[444710.4022,373564.6976],[446701.8977,374324.600099999],[445654.7188,376290.934],[445145.6012,377782.9002],[446040.1986,378107.2973],[445280.6965,379337.0953],[447937.7005,379406.995300001],[450488.4008,378555.099099999],[451358.4032,379342.103800001],[453192.6984,378879.6962],[453416.7002,379685.195599999],[454965.34,379000],[454755.3024,376996.0954],[455676.2015,375952.1042],[454682.1027,375092.4003],[455145.302,374556.2038],[453294,374089.630000001],[452609.6984,372581.499],[453357.61,371240.220000001],[452887.6733,369248.523499999]]]},"properties":{"LAD24CD":"E07000033"}},{"type":"Feature","geometry":{"type":"Polygon","coordinates":[[[445654.7188,376290.934],[446701.8977,374324.600099999],[444710.4022,373564.6976],[445536.8139,371605.227],[443670.23,371578.9],[443414.6,372339.800000001],[441449.0023,372040.6039],[440092.7969,370970.600199999],[440097.5,368708.800000001],[438776.2,368532.5],[437494.201,368647.7951],[437407.7021,369430.1011],[434847.7013,369588.595799999],[434533.1027,370337.001499999],[435378.92,371144.83],[434686.55,372284.199999999],[435382.45,373729.859999999],[434737.55,374173.550000001],[435837.27,374690.939999999],[436295.196,376443.4036],[437500.5002,376059.4035],[439067.0041,376898.4033],[440149.6961,376276.9013],[441614.4342,378184.3301],[442298.59,377098.960000001],[444518.3994,377181.702299999],[445654.7188,376290.934]]]},"properties":{"LAD24CD":"E07000034"}},{"type":"Feature","geometry":{"type":"Polygon","coordinates":[[[426809.0965,379448.5034],[426927.09,377722.1],[428190.12,376695.91],[427477.15,375832.68],[427782.36,374047.699999999],[429062.3975,373911.1984],[429644.4988,372594.495300001],[428657.3012,371637.499299999],[428871.8,369644.119999999],[432453.6983,367399.9023],[430271.8985,367075.495100001],[430170.3029,365465.8959],[433859.2998,359761.898600001],[431986.3023,358243.303300001],[431492.5963,356020.7995],[432773.2027,355237.603700001],[432290.6028,354441.7015],[431335.0991,354513.7009],[430030.1038,352511.2041],[427481.8028,350906.9033],[428191.3975,349527.3982],[427019.0982,348204.9967],[427943.6004,347088.496300001],[429186.7,347327.398],[428533.5016,346791.3014],[429164.3972,346351.397299999],[428358.0961,346456.7972],[428497.6026,345053.198899999],[426992.1039,344639.6973],[426806.9033,343194.301000001],[428875.53,341932.02],[428909.01,341106.289999999],[427005.7,340653.1984],[426495.0009,338935.4001],[423598.74,338627.449999999],[423039.7019,333957.805],[421734.67,336063.93],[419713.702,336103.400800001],[419299.701,334720.196699999],[416979.2027,335034.896600001],[417819.696,333116.3958],[417194.9018,330163.201099999],[415088.2969,331838.4016],[411656.9993,331897.2048],[409739.4,336222.25],[411614.59,338954.76],[411728.3026,342205.0042],[416042.5968,344750.5956],[416261.701,348918.4025],[414914.3014,349759.8017],[415132.8038,351366.501700001],[413877.8972,354593.2981],[414579.82,356215.560000001],[412014.46,359960.52],[412628.06,361933.93],[409396.99,365715.42],[406865.27,366998.85],[405539.42,368994.77],[406053.71,369406.1],[406935.78,368155.1],[407082.72,369060.98],[407670.77,368941.609999999],[407934.85,367372.57],[408592.42,368733.630000001],[410631.34,366413.15],[411349.87,366735.92],[411367.004,368187.4968],[408491.2009,369983.602700001],[410485.94,372609.93],[414087.76,373280.33],[412264.0996,376190.396],[411917.7988,378442.101500001],[416010.74,382389.4],[418062.58,382451.17],[418239.39,380277.390000001],[420050.1994,380784.6009],[420283.5017,382029.4046],[421984.4001,383656.9987],[421834.4966,385884.301200001],[423119.4976,388395.5023],[422485.6008,385575.999399999],[427356.4037,383301.3005],[425909.7005,382992.5989],[424562.6966,380495.703600001],[424907.26,379985.869999999],[426128.6976,380707.0031],[426809.0965,379448.5034]]]},"properties":{"LAD24CD":"E07000035"}},{"type":"Feature","geometry":{"type":"Polygon","coordinates":[[[451248.4965,333028.201099999],[451239.3033,331672.999],[449373.8005,330903.7992],[445913.4967,330814.3048],[443845.35,331659.060000001],[444524.63,332686.310000001],[441238.9643,333954.5451],[441570.8973,336678.2962],[438813.4025,337736.703299999],[439786.8969,339376.8038],[435804.2026,339383.5019],[435379.49,341076.59],[435090.67,342921.76],[439771.18,342344.699999999],[441359.9968,342947.2018],[442331.08,341929.74],[444897.9858,342518.6085],[446573.1073,345367.3521],[447930.9972,341602.196799999],[447627.2986,340031.7963],[448404.9975,339325.7984],[448399.15,335000],[450806.66,334209.050000001],[451248.4965,333028.201099999]]]},"properties":{"LAD24CD":"E07000036"}},{"type":"Feature","geometry":{"type":"Polygon","coordinates":[[[411883.9034,402726.3002],[413609.504,400735.200099999],[413272.6025,398268.6962],[413273,398268.218699999],[413275.3017,398265.4539],[417006.296,396187.102],[417392.1979,391606.203299999],[419469.3019,391208.2972],[419712.0035,389842.698100001],[423119.4976,388395.5023],[421834.4966,385884.301200001],[421984.4001,383656.9987],[420283.5017,382029.4046],[420050.1994,380784.6009],[418239.39,380277.390000001],[418062.58,382451.17],[416010.74,382389.4],[411917.7988,378442.101500001],[412264.0996,376190.396],[414087.76,373280.33],[410485.94,372609.93],[408491.2009,369983.602700001],[411367.004,368187.4968],[411349.87,366735.92],[410631.34,366413.15],[408592.42,368733.630000001],[407934.85,367372.57],[407670.77,368941.609999999],[407082.72,369060.98],[406935.78,368155.1],[406053.71,369406.1],[405539.42,368994.77],[406865.27,366998.85],[402988.1998,368519.7017],[402609.702,369909.503900001],[400939.8642,368502.888699999],[400748.16,369550.699999999],[401774,370433.5],[399468.5,373733],[399645.7015,384185.897299999],[398030.7991,385931.897500001],[397850.2982,386519.2994],[399788.4977,387718.6961],[400607.1003,390930.096799999],[399186.8968,391007.704600001],[398352.8017,392562.6995],[399152.2016,393663.6044],[399817.1988,393236.196699999],[399550.2979,393862.297499999],[401040.6999,395384.0019],[400905.5963,398263.5976],[402525.5034,401459.003],[403325.2991,400833.302100001],[405271.9993,401475.3983],[404951.9012,402698.1982],[406087.1967,404640.102399999],[407115.9989,404109.804199999],[408481.1997,404870.5964],[410585.1991,402591.6987],[411883.9034,402726.3002]]]},"properties":{"LAD24CD":"E07000037"}},{"type":"Feature","geometry":{"type":"Polygon","coordinates":[[[445075.0977,381531.897],[446779.0962,381960.0045],[447480.8993,381267.8026],[447020.9981,380018.100299999],[447937.7005,379406.995300001],[445280.6965,379337.0953],[446040.1986,378107.2973],[445145.6012,377782.9002],[445654.7188,376290.934],[444518.3994,377181.702299999],[442298.59,377098.960000001],[441614.4342,378184.3301],[440149.6961,376276.9013],[439067.0041,376898.4033],[437500.5002,376059.4035],[436295.196,376443.4036],[435837.27,374690.939999999],[434737.55,374173.550000001],[435382.45,373729.859999999],[434686.55,372284.199999999],[435378.92,371144.83],[434533.1027,370337.001499999],[434847.7013,369588.595799999],[437407.7021,369430.1011],[437494.201,368647.7951],[438776.2,368532.5],[440097.5,368708.800000001],[440092.7969,370970.600199999],[441449.0023,372040.6039],[443414.6,372339.800000001],[443670.23,371578.9],[445536.8139,371605.227],[446133.3018,368996.6952],[445635.32,365638.26],[443083.37,365565.140000001],[441656.5835,364247.5681],[443370.52,362598.02],[441721.0975,360061.3029],[442027.8963,356921.7016],[437037.3009,356415.396500001],[433859.2998,359761.898600001],[430170.3029,365465.8959],[430271.8985,367075.495100001],[432453.6983,367399.9023],[428871.8,369644.119999999],[428657.3012,371637.499299999],[429644.4988,372594.495300001],[429062.3975,373911.1984],[427782.36,374047.699999999],[427477.15,375832.68],[428190.12,376695.91],[426927.09,377722.1],[426809.0965,379448.5034],[427748.0028,380596.4048],[428045.4022,379502.298],[429295.304,379980.701099999],[429301.9,378917.195499999],[430966.3965,378742.6954],[433264.6001,380185.9023],[435544.5986,380150.9023],[436385.8999,380685.599300001],[436068.3001,381664.4991],[437255.0035,382430.4998],[438662.9961,382116.299699999],[439311.0002,382947.6018],[440946.4988,382172.503699999],[440951.8004,380251.103599999],[444217.1991,380081.702099999],[445075.0977,381531.897]]]},"properties":{"LAD24CD":"E07000038"}},{"type":"Feature","geometry":{"type":"Polygon","coordinates":[[[430748.999,336405.804199999],[429897.3,335336.699999999],[430933.4987,332550.297800001],[433532.8037,332045.3024],[434178.2448,330370.7722],[436168.9971,330697.498199999],[437380.6995,329455.103800001],[438902.9027,329886.3004],[439198.8014,332054.4998],[440270.1976,333833.9004],[441238.9643,333954.5451],[444524.63,332686.310000001],[443845.35,331659.060000001],[445913.4967,330814.3048],[445489.37,330036.449999999],[444158.59,330177.32],[443794.4,328618.4],[443153.71,328846.57],[440895.61,326753.119999999],[441332.89,326335.800000001],[439354.6001,322829.9003],[437601.76,322927.41],[437690.97,321847.369999999],[436328.0031,321165.296800001],[436799.48,320080.720000001],[435960.4,318940.699999999],[434245.2017,318055.7969],[433567.7,318990.800000001],[430274.001,318506.297900001],[429627.6316,317083.1765],[430847.77,314991.02],[430486.67,313728.74],[427293.197,311490.2962],[423406.92,311287.060000001],[423290.4013,313842.003],[420074.0029,314976.8982],[422587.4026,320844.0987],[426326.3977,320493.598999999],[426105.397,321256.7006],[427816.0988,322555.698799999],[427619.9,323602.699999999],[426345.7,324382.449999999],[428031.07,326086.76],[425229.66,328614.6],[421000,329712.109999999],[420254.3966,329272.796],[419990.21,329952.57],[418592.74,329164.109999999],[417194.9018,330163.201099999],[417819.696,333116.3958],[416979.2027,335034.896600001],[419299.701,334720.196699999],[419713.702,336103.400800001],[421734.67,336063.93],[423039.7019,333957.805],[423598.74,338627.449999999],[426495.0009,338935.4001],[426703.61,337792.439999999],[428988.69,337687.720000001],[430748.999,336405.804199999]]]},"properties":{"LAD24CD":"E07000039"}},{"type":"Feature","geometry":{"type":"Polygon","coordinates":[[[455201.0963,307300.695499999],[454863.4034,305044.101399999],[453737.6969,305275.6951],[453156.7994,304373.303400001],[456600.75,302027.800000001],[456035.6037,299776.699200001],[457144.8035,299555.4025],[456948.8019,298630.6972],[457726.303,298472.2026],[458115.2967,299255.6983],[459060.2961,296399.196],[459497.4987,297146.0022],[461386.7968,296795.502499999],[462273.6026,295808.395099999],[463863.4977,296090.4044],[462770.92,293836.689999999],[459688.1988,294508.7971],[455436.8968,292491.204600001],[454225.4995,292471.100400001],[452176.9976,295556.997099999],[447218.896,288611.495200001],[445909.1406,289451.126800001],[446379.8023,291020.035800001],[445216.2037,293001.1986],[445185.6969,296023.203600001],[445935.5028,296875.6996],[447412.3004,296177.1995],[449380.2976,296706.498],[449570.1978,297690.0965],[447746.2996,298230.501800001],[447633.301,298903.199200001],[449228.102,300599.9035],[449218.1997,302289.199999999],[450375.08,302302.17],[450057.8025,303637.304099999],[451479.0041,304251.020300001],[450052.7977,304622.302100001],[452051.9035,305052.698899999],[454223.0012,307707.798900001],[455201.0963,307300.695499999]]]},"properties":{"LAD24CD":"E07000129"}},{"type":"Feature","geometry":{"type":"Polygon","coordinates":[[[465040.4533,324694.829399999],[464472.7995,319139.096799999],[465535.2003,318057.896299999],[466286.1028,314818.703500001],[467564.9035,314467.1041],[466602.3009,313025.5967],[467138.8977,311427.404200001],[471155.5039,309702.9978],[470407.0998,308882.8026],[469033.2005,309836.299699999],[466812.1111,306824.6073],[464453.3988,306785.7029],[462642.297,308389.7037],[459680.2011,308748.700999999],[458986.6018,307872.901699999],[458008.4984,310282.8018],[457057.1998,310757.296],[455664.89,309237.939999999],[455201.0963,307300.695499999],[454223.0012,307707.798900001],[453368.2028,308815.8018],[452372.1994,308310.896299999],[451179.8976,309906.8994],[450190.3006,309630.498600001],[448699.7008,310699.4026],[448551.8009,313237.2961],[450929.6023,315678.5973],[450655.8992,316176.8047],[449585.3028,316897.5984],[448208.0972,315384.3016],[447026.5965,316985.0034],[445157.202,317473.9034],[444983.998,318593.902799999],[446028.8039,321083.200300001],[448748.7012,320863.6031],[448879.3029,322772.9966],[449845.6844,323908.5176],[451703.5002,323000.3015],[452298.703,321846.102],[454200.2036,321614.7981],[456501.4991,323544.595699999],[458685.3025,323493.100400001],[459607.0014,325034.099300001],[462464.0965,325642.895099999],[462661.2029,324453.295600001],[465040.4533,324694.829399999]]]},"properties":{"LAD24CD":"E07000130"}},{"type":"Feature","geometry":{"type":"Polygon","coordinates":[[[480693.969,306039.656400001],[480939.3985,303213.995300001],[479959.4977,300501.7017],[481888.7019,300662.5956],[483756.9,299012.4],[484155.2032,297061.896299999],[485611.7015,295304.3994],[485403.2993,294255.1997],[487368.1963,292674.102299999],[484440.0041,291063.5033],[483228.3017,291857.9959],[480162.5983,291502.5976],[476846.3028,292724.797800001],[475868.4963,291259.597200001],[475993.6976,288946.8992],[474923.299,288235.402799999],[476012.9992,286512.596000001],[474749.6992,285210.798599999],[471956.9981,286060.995300001],[471281.3978,287124.900699999],[467978.0965,286356.8006],[465039.69,283524.310000001],[465748.5001,282471.1029],[464700.998,280891.1951],[462342.1025,282428.1951],[459317.5998,280144.198899999],[457976.5983,278007.600500001],[455626.98,277438.890000001],[454419.7193,277932.977399999],[447218.896,288611.495200001],[452176.9976,295556.997099999],[454225.4995,292471.100400001],[455436.8968,292491.204600001],[459688.1988,294508.7971],[462770.92,293836.689999999],[463863.4977,296090.4044],[462273.6026,295808.395099999],[462758.8986,297834.395199999],[465028.4012,300453.395500001],[463588.797,301128.4023],[463026.5003,302658.6042],[464594.9995,304520.701199999],[464453.3988,306785.7029],[466812.1111,306824.6073],[469033.2005,309836.299699999],[470407.0998,308882.8026],[471155.5039,309702.9978],[473393.4032,308708.102600001],[473662.1015,309383.1994],[474953.84,309017.699999999],[477464.17,310306.189999999],[477261.11,309058.220000001],[478939.7981,308968.698000001],[479264.7029,307421.7008],[480620.9001,307316.900800001],[479777.8013,306150.704600001],[480693.969,306039.656400001]]]},"properties":{"LAD24CD":"E07000131"}},{"type":"Feature","geometry":{"type":"Polygon","coordinates":[[[454223.0012,307707.798900001],[452051.9035,305052.698899999],[450052.7977,304622.302100001],[451479.0041,304251.020300001],[450057.8025,303637.304099999],[450375.08,302302.17],[449218.1997,302289.199999999],[449228.102,300599.9035],[447633.301,298903.199200001],[447746.2996,298230.501800001],[449570.1978,297690.0965],[449380.2976,296706.498],[447412.3004,296177.1995],[445935.5028,296875.6996],[445185.6969,296023.203600001],[445216.2037,293001.1986],[446379.8023,291020.035800001],[445909.1406,289451.126800001],[439618.9038,293111.9969],[436711.7035,294995.4978],[432446.96,297060.880000001],[432135.1999,298428.2952],[429853.4,299902.42],[430263.7,301978.800000001],[429105.7995,304253.297800001],[430915.4997,305302.997300001],[430408.8984,307841.400699999],[431420.8972,307656.503599999],[433739.11,308989.310000001],[434315.0935,308045.476199999],[435455.7993,309016.704299999],[437582.1016,307502.197799999],[439020.9967,309743.2963],[440538.5991,308429.3024],[443328.802,308942.295600001],[444530.9979,310480.0954],[443952.7965,310914.800899999],[448551.8009,313237.2961],[448699.7008,310699.4026],[450190.3006,309630.498600001],[451179.8976,309906.8994],[452372.1994,308310.896299999],[453368.2028,308815.8018],[454223.0012,307707.798900001]]]},"properties":{"LAD24CD":"E07000132"}},{"type":"Feature","geometry":{"type":"Polygon","coordinates":[[[490252.7969,318512.0962],[484379.9966,316181.5034],[482692.9004,316956.101600001],[480225.6978,315267.605],[479688.4991,313761.796],[482140.2,311474.41],[482457.7018,308668.204],[480693.969,306039.656400001],[479777.8013,306150.704600001],[480620.9001,307316.900800001],[479264.7029,307421.7008],[478939.7981,308968.698000001],[477261.11,309058.220000001],[477464.17,310306.189999999],[474953.84,309017.699999999],[473662.1015,309383.1994],[473393.4032,308708.102600001],[471155.5039,309702.9978],[467138.8977,311427.404200001],[466602.3009,313025.5967],[467564.9035,314467.1041],[466286.1028,314818.703500001],[465535.2003,318057.896299999],[464472.7995,319139.096799999],[465040.4533,324694.829399999],[466005.8037,325392.196799999],[468651.0996,325275.700200001],[468999.0989,327512.799799999],[470178.15,327872.4],[472254.3974,330380.198999999],[471399.2146,331563.1556],[472996.76,331814.66],[476929.5037,334853.6985],[476562.5985,335679.202199999],[479101.4013,338910.6972],[478452.3995,339355.299900001],[479358.8038,340992.801200001],[479845.9962,340667.0045],[480931.9038,342828.8956],[482131.5024,342870.503699999],[482154.2011,340911.5045],[483750.7005,339853.1974],[482363.502,334850.399499999],[483608.7041,334391.2009],[483088.3995,332858.7995],[484701.4962,332481.5975],[488919.7,324635.92],[490252.7969,318512.0962]]]},"properties":{"LAD24CD":"E07000133"}},{"type":"Feature","geometry":{"type":"Polygon","coordinates":[[[449845.6844,323908.5176],[448879.3029,322772.9966],[448748.7012,320863.6031],[446028.8039,321083.200300001],[444983.998,318593.902799999],[445157.202,317473.9034],[447026.5965,316985.0034],[448208.0972,315384.3016],[449585.3028,316897.5984],[450655.8992,316176.8047],[450929.6023,315678.5973],[448551.8009,313237.2961],[443952.7965,310914.800899999],[444530.9979,310480.0954],[443328.802,308942.295600001],[440538.5991,308429.3024],[439020.9967,309743.2963],[437582.1016,307502.197799999],[435455.7993,309016.704299999],[434315.0935,308045.476199999],[433739.11,308989.310000001],[431420.8972,307656.503599999],[430408.8984,307841.400699999],[427835.1037,310029.304400001],[427293.197,311490.2962],[430486.67,313728.74],[430847.77,314991.02],[429627.6316,317083.1765],[430274.001,318506.297900001],[433567.7,318990.800000001],[434245.2017,318055.7969],[435960.4,318940.699999999],[436799.48,320080.720000001],[436328.0031,321165.296800001],[437690.97,321847.369999999],[437601.76,322927.41],[439354.6001,322829.9003],[441332.89,326335.800000001],[440895.61,326753.119999999],[443153.71,328846.57],[443794.4,328618.4],[444158.59,330177.32],[445489.37,330036.449999999],[445913.4967,330814.3048],[449373.8005,330903.7992],[448979.802,326756.896199999],[449845.6844,323908.5176]]]},"properties":{"LAD24CD":"E07000134"}},{"type":"Feature","geometry":{"type":"Polygon","coordinates":[[[462273.6026,295808.395099999],[461386.7968,296795.502499999],[459497.4987,297146.0022],[459060.2961,296399.196],[458115.2967,299255.6983],[459690.9031,300333.5998],[460812.0995,300165.797800001],[461260.1032,302460.900800001],[463026.5003,302658.6042],[463588.797,301128.4023],[465028.4012,300453.395500001],[462758.8986,297834.395199999],[462273.6026,295808.395099999]]]},"properties":{"LAD24CD":"E07000135"}},{"type":"Feature","geometry":{"type":"Polygon","coordinates":[[[547581.8699,350621.037599999],[544447.6001,347805.6011],[540000.0098,340235.3378],[539861.7274,339999.966700001],[539384.1019,339186.9981],[539739.7698,339198.336200001],[538809.4365,338116.3828],[538149.0989,337388.203],[537463.2003,336550.745200001],[536444.8795,335366.464600001],[532005.8028,331903.7029],[529025.9965,331388.8003],[526703.55,333309.119999999],[525072.902,333551.3013],[524055.56,336558.67],[517953.09,338262.539999999],[521589.63,345878.16],[519133.75,349551.01],[519965.5978,354015.9034],[520959.4987,353997.998500001],[526506.3966,347583.5046],[533836.8001,346721.4014],[537253.6028,350039.7016],[536523.7995,354408.0012],[539952.4999,354745.804500001],[543225.81,356522.83],[544203.98,353235.529999999],[547128.65,351178.390000001],[547581.8699,350621.037599999]]]},"properties":{"LAD24CD":"E07000136"}},{"type":"Feature","geometry":{"type":"Polygon","coordinates":[[[547581.8699,350621.037599999],[547128.65,351178.390000001],[544203.98,353235.529999999],[543225.81,356522.83],[539952.4999,354745.804500001],[536523.7995,354408.0012],[537253.6028,350039.7016],[533836.8001,346721.4014],[526506.3966,347583.5046],[520959.4987,353997.998500001],[520888.6984,355541.196799999],[519331.5032,356928.299699999],[518789.3986,360103.500800001],[514401.6987,366058.7962],[513476.8996,369493.6029],[515166.7002,372178.304500001],[514842.1993,373904.600299999],[513462.6027,375243.1971],[514165.6014,375471.501800001],[513431.5023,375452.2973],[513330.0963,376714.9958],[512349.2968,377151.6009],[512232.2994,379239.0034],[513678.4007,379799.8028],[512654.9,381669.897500001],[513745.3011,383306.799000001],[514964.1025,381928.103599999],[516291.5986,382874.502699999],[516210.2034,384442.104],[519529.5001,387612.4965],[517825.8973,390483.004799999],[519350.6977,391676.1033],[518733.2003,393909.304],[520952.95,395305.57],[524201.12,394860.52],[524971.9989,394618.0012],[527452.5998,396641.6019],[525696.7975,398677.599099999],[526869.3029,399579.301000001],[526467.3974,400493.1994],[527799.2963,400901.502499999],[528388.2988,404190.601],[531729.7994,403907.202199999],[533699.5488,405362.6219],[533848.0923,405093.9344],[534911.492,404751.195],[534064.701,404310.609999999],[535040.622,404424.988],[535174.23,403463.470000001],[535081.0166,404705.0844],[535432.77,403188.619999999],[535659.928,403892.157],[536770.747,403716.889],[534444.121,405579.880000001],[537793.728,403835.676000001],[538459.042,404132.271],[538364.639,402322.435000001],[538802.992,401498.148],[539494.414,401814.502],[539494.58,400708.859999999],[540000.0302,400702.366599999],[540444.778,400696.653000001],[540000.0297,401176.7894],[539673.935,401528.831],[540000.0279,401286.927100001],[540857.18,400651.07],[540000.0268,401351.483899999],[539604.136,401674.982000001],[540000.0198,401775.8137],[540263.095,401842.819],[539999.9948,402864.072000001],[539964.189,403003.056],[539999.9917,402986.9958],[541337.453,402387.043],[541734.494,400806.567],[542305.671,400879.354],[541971.373,401924.687999999],[542512.135,401722.413000001],[543856.8774,399999.9976],[544372.826,399339.143999999],[543812.192,399632.955],[544848.122,396282.982000001],[545602.881,395733.299000001],[544607.231,395557.635],[545654.406,395638.083000001],[547040.904,393450.720000001],[545608.036,393398.686000001],[547178.825,393367.422],[547143.1445,393306.021],[547118.166,393307.423],[546755.583,392639.082],[547125.0364,393274.8594],[547292.131,392482.886],[547252.231,393301.460999999],[548445.199,391824.892000001],[550532.0724,387087.896400001],[551555.61,384110.18],[555098.5127,376403.514900001],[557473.1,368696.5],[557341.808,360000.010600001],[557338.722,359795.602],[556623.8644,358615.6745],[556599.495,358575.450999999],[556417.203,356933.718],[556447.111,357788.162],[555401.812,357458.333000001],[555382.207,357382.989],[554069.485,357302.613],[555176.827,357116.694],[553399.277,355611.868000001],[552938.537,356083.493000001],[553337.98,355515.203],[551348.516,354215.15],[552135.207,354172.169],[551444.223,353402.811000001],[550828.18,352909.501],[550411.61,353451.148],[550813.389,352874.382999999],[549968.735,352978.272],[550554.326,352502.997],[547595.0051,350632.8366],[547581.8699,350621.037599999]]]},"properties":{"LAD24CD":"E07000137"}},{"type":"Feature","geometry":{"type":"Polygon","coordinates":[[[500563.7983,370855.6031],[498237.0008,369943.7041],[497644.2963,368423.9991],[497021.2995,368623.901900001],[496797.8006,366445.195499999],[496022.196,366504.898499999],[492281.7003,368774.298800001],[492523.6022,370320.6962],[495506.7972,371236.304099999],[493845.1041,372934.797900001],[499217.3963,374023.6962],[500452.9022,373293.895099999],[500563.7983,370855.6031]]]},"properties":{"LAD24CD":"E07000138"}},{"type":"Feature","geometry":{"type":"Polygon","coordinates":[[[493845.1041,372934.797900001],[495506.7972,371236.304099999],[492523.6022,370320.6962],[492281.7003,368774.298800001],[496022.196,366504.898499999],[496797.8006,366445.195499999],[497021.2995,368623.901900001],[497644.2963,368423.9991],[498237.0008,369943.7041],[500563.7983,370855.6031],[508106.9985,371765.7026],[510081.8968,371361.498299999],[512398.8002,366632.7019],[514401.6987,366058.7962],[518789.3986,360103.500800001],[519331.5032,356928.299699999],[520888.6984,355541.196799999],[520959.4987,353997.998500001],[519965.5978,354015.9034],[519133.75,349551.01],[521589.63,345878.16],[517953.09,338262.539999999],[517356.7038,335692.498400001],[512865.5036,336881.698000001],[510512.8991,336618.203400001],[510024.5029,334635.1011],[505240.5041,333311.799900001],[504670.2015,334810.200999999],[503025.9961,334843.501399999],[501689.0017,336181.8983],[501351.4984,336983.5988],[502300.2988,338192.8027],[501262.3033,340666.204700001],[500211.8001,339946.1008],[499655.9016,341349.4991],[497233.9973,340648.299799999],[497935.3257,342577.8521],[499075.8038,342350.102700001],[499117.598,351281.796],[494962.1037,350756.7963],[487898.0982,352190.096000001],[486838.6985,351307.398700001],[486135.9967,352079.897600001],[486305.4987,352860.5041],[487533.5016,352909.800000001],[485160.4988,356384.795299999],[485985.3017,358433.898800001],[484914.9031,359707.5042],[486036.3964,360737.999199999],[485769.7016,365229.3036],[482694.6978,365763.6006],[484874.4034,368937.6021],[485936.9032,368606.197000001],[487055.7992,370031.798900001],[488512.8994,369770.003799999],[489087.8028,372235.2981],[490290.01,372677.51],[490274.1022,373756.002900001],[492000.1975,374327.3993],[493845.1041,372934.797900001]]]},"properties":{"LAD24CD":"E07000139"}},{"type":"Feature","geometry":{"type":"Polygon","coordinates":[[[536444.8795,335366.464600001],[537169.3846,336126.454],[537130.1125,335928.0583],[537349.0867,336297.4254],[539174.1991,337701.903200001],[539248.7015,336533.0978],[538404.5969,335971.998400001],[539539.2987,336304.303300001],[539807.997,335420.396299999],[540000.0004,335365.957800001],[544426.2041,334111.0011],[543855.8025,332917.2028],[544789.902,333821.403999999],[546570.1014,332953.602399999],[549277.697,328008.4979],[548125.796,328062.002599999],[549334.0025,327957.8024],[549342.396,327331.2018],[548772.5963,322718.302200001],[549476.7987,327116.5033],[551388.2018,327320.2049],[552797.3228,326443.689099999],[551504.82,323125.82],[553379.31,321886.880000001],[547711.5971,317540.704299999],[546710.3994,317809.0975],[544097.1025,317872.599300001],[541179.9999,316042.203199999],[539453.7974,316411.0976],[538179.6964,314926.702500001],[538582.3027,311267.100099999],[536804.2965,309378.7006],[533246.0991,308906.795700001],[531011.2011,310371.0966],[529410.9997,309388.197899999],[528418.5004,309965.2028],[525850.1969,307594.501399999],[523189.5981,308534.202400001],[522343.3992,307608.8972],[520976.096,309159.703299999],[517192.0994,312673.7974],[514407.1981,317543.203600001],[517438.8989,320685.0043],[516142.0002,330690.700200001],[516479.2974,331912.3005],[517425.2038,331387.500700001],[516558.4005,332453.895400001],[517356.7038,335692.498400001],[517953.09,338262.539999999],[524055.56,336558.67],[525072.902,333551.3013],[526703.55,333309.119999999],[529025.9965,331388.8003],[532005.8028,331903.7029],[536444.8795,335366.464600001]]]},"properties":{"LAD24CD":"E07000140"}},{"type":"Feature","geometry":{"type":"Polygon","coordinates":[[[517356.7038,335692.498400001],[516558.4005,332453.895400001],[517425.2038,331387.500700001],[516479.2974,331912.3005],[516142.0002,330690.700200001],[517438.8989,320685.0043],[514407.1981,317543.203600001],[517192.0994,312673.7974],[520976.096,309159.703299999],[517754.2972,307382.402100001],[515777.6015,309433.8049],[512669.2959,309871.7995],[511686.09,308380.68],[507958.27,306781.779999999],[504754.59,307403.99],[501955.9474,305785.7883],[501933.204,305782.100199999],[499943.8026,308522.4957],[501100.6012,307911.2007],[504488.9998,309191.904100001],[505953.6029,310704.801100001],[506145.1027,313125.598099999],[501805.3973,313503.799799999],[498538.5969,314953.105],[498670.6003,316638.3026],[496433.0968,318229.997],[494224.5995,317895.602700001],[493877.5979,318926.897500001],[490252.7969,318512.0962],[488919.7,324635.92],[484701.4962,332481.5975],[483088.3995,332858.7995],[483608.7041,334391.2009],[482363.502,334850.399499999],[483750.7005,339853.1974],[482154.2011,340911.5045],[482131.5024,342870.503699999],[480332.7022,346799.3991],[480890.4971,346596.497199999],[481359.0969,348301.899],[483202.5029,348729.196699999],[483908.7996,351601.804400001],[486135.9967,352079.897600001],[486838.6985,351307.398700001],[487898.0982,352190.096000001],[494962.1037,350756.7963],[499117.598,351281.796],[499075.8038,342350.102700001],[497935.3257,342577.8521],[497233.9973,340648.299799999],[499655.9016,341349.4991],[500211.8001,339946.1008],[501262.3033,340666.204700001],[502300.2988,338192.8027],[501351.4984,336983.5988],[501689.0017,336181.8983],[503025.9961,334843.501399999],[504670.2015,334810.200999999],[505240.5041,333311.799900001],[510024.5029,334635.1011],[510512.8991,336618.203400001],[512865.5036,336881.698000001],[517356.7038,335692.498400001]]]},"properties":{"LAD24CD":"E07000141"}},{"type":"Feature","geometry":{"type":"Polygon","coordinates":[[[513082.3982,414321.5011],[516022.7024,412210.895300001],[515854.0992,411203.8035],[516956.9008,411408.8049],[517809.1021,409400.399800001],[519611.5961,409846.702],[520014.6972,409222.8006],[518084.8005,405465.6961],[518703.1965,405381.000299999],[519190.1004,403173.802100001],[518828.9997,400328.6965],[520296.2,400170.901699999],[520789.7989,398414.904300001],[522665.0968,398132.2952],[523015.3965,396028.897299999],[524201.12,394860.52],[520952.95,395305.57],[518733.2003,393909.304],[519350.6977,391676.1033],[517825.8973,390483.004799999],[519529.5001,387612.4965],[516210.2034,384442.104],[516291.5986,382874.502699999],[514964.1025,381928.103599999],[513745.3011,383306.799000001],[512654.9,381669.897500001],[513678.4007,379799.8028],[512232.2994,379239.0034],[512349.2968,377151.6009],[513330.0963,376714.9958],[513431.5023,375452.2973],[514165.6014,375471.501800001],[513462.6027,375243.1971],[514842.1993,373904.600299999],[515166.7002,372178.304500001],[513476.8996,369493.6029],[514401.6987,366058.7962],[512398.8002,366632.7019],[510081.8968,371361.498299999],[508106.9985,371765.7026],[500563.7983,370855.6031],[500452.9022,373293.895099999],[499217.3963,374023.6962],[493845.1041,372934.797900001],[492000.1975,374327.3993],[490274.1022,373756.002900001],[490290.01,372677.51],[489087.8028,372235.2981],[487618.2031,374287.8006],[484550.1004,373744.2962],[484507.8033,372616.2991],[481699.9972,372905.0964],[482504.0967,375793.299699999],[481559.6992,377013.9003],[482504.5997,378764.1993],[483351.3015,378129.6009],[483585.6014,379327.797900001],[483359.2003,381536.595699999],[482247.7001,382172.603599999],[482725.0974,384821.4954],[481650.4031,385981.903200001],[480542.5967,385864.9967],[481573.3036,387463.4991],[480546.4966,388346.7963],[481410.1998,389592.299799999],[480612.0036,391620.2993],[478631.9027,392890.9955],[478445.5973,394420.0978],[479948.5978,396038.3046],[480803.8992,396978.0956],[480777.1027,398456.5024],[481623.1037,398752.797599999],[481814.7025,400950.998400001],[482872.6015,401148.002],[483665.0014,403321.399900001],[491311.1989,402672.9955],[491079.1005,396589.9967],[496252.497,396836.995999999],[501529.7979,398655.795399999],[500529.0041,399257.403200001],[500355.0993,401968.1972],[505848.396,403507.6965],[505608.8027,405115.296399999],[504081.3969,406665.002800001],[499424.9987,405576.904200001],[500089.7979,406527.302200001],[501666.501,406904.404200001],[504122.4985,409803.104499999],[504947.4994,408562.5996],[510325.4971,408174.500700001],[512559.3975,412307.297700001],[511992.0961,414413.604699999],[513082.3982,414321.5011]]]},"properties":{"LAD24CD":"E07000142"}},{"type":"Feature","geometry":{"type":"Polygon","coordinates":[[[449576.0023,363293.397700001],[449895.0038,362199.300899999],[450855.8007,362040.296399999],[450943.0005,360538.1964],[455123.7989,357827.802200001],[456051.6981,356554.4967],[451952.501,354086.303200001],[451612.6973,351920.5032],[452559.14,350478.51],[454929.2979,350437.397700001],[454920.7972,347117.797900001],[453090.65,347047],[452086.14,345925.76],[451808.7979,347547.9048],[450154.5006,349427.196900001],[448040.302,350344.0045],[446793.5993,349626],[444613.7041,350838.203],[444027.1999,352232.004000001],[444868.4023,353958.0999],[446786.5992,354779.005000001],[446350.8972,355728.0033],[446923.2034,356320.9036],[445476.3024,359488.9967],[445330.68,363012.529999999],[447508.09,364045.220000001],[449576.0023,363293.397700001]]]},"properties":{"LAD24CD":"E07000170"}},{"type":"Feature","geometry":{"type":"Polygon","coordinates":[[[479948.5978,396038.3046],[478445.5973,394420.0978],[478631.9027,392890.9955],[480612.0036,391620.2993],[481410.1998,389592.299799999],[480546.4966,388346.7963],[481573.3036,387463.4991],[480542.5967,385864.9967],[481650.4031,385981.903200001],[482725.0974,384821.4954],[482247.7001,382172.603599999],[483359.2003,381536.595699999],[483585.6014,379327.797900001],[483351.3015,378129.6009],[482504.5997,378764.1993],[481559.6992,377013.9003],[482504.0967,375793.299699999],[481699.9972,372905.0964],[481576.2965,367282.4959],[481098.0005,368183.198000001],[478814.3989,367787.3014],[477563.7963,369721.897600001],[476372.5993,368955.696900001],[473921.4993,370192.902799999],[470287.1011,369075.3027],[470378.5966,370379.6993],[469009.4959,371417.202299999],[466373.6983,371489.401699999],[464960.0001,374220.199999999],[459948.3964,371325.5985],[458594.3018,370089.102499999],[452887.6733,369248.523499999],[453357.61,371240.220000001],[452609.6984,372581.499],[453294,374089.630000001],[455145.302,374556.2038],[454682.1027,375092.4003],[455676.2015,375952.1042],[454755.3024,376996.0954],[454965.34,379000],[453416.7002,379685.195599999],[457442.4997,383063.6986],[457282.9001,383658.6982],[456231.0034,383448.2985],[455831.3983,384764.8016],[457434.8978,384679.696],[456918.6992,386134.7995],[457940.8972,386873.698000001],[457650.5968,388479.0984],[458906.1959,389290.496200001],[458861.4995,390420.8026],[461200.2028,392622.102499999],[464482.3967,393122.9991],[464520.0024,392479.903200001],[465592.7014,392617.004000001],[466817.1012,393817.000499999],[467405.9965,397691.601399999],[469557.001,399141.396400001],[470701.1021,401171.5952],[473075.6962,398163.0964],[471779.3995,397069.6994],[472053.5972,396493.904200001],[474986.2006,397208.6996],[479948.5978,396038.3046]]]},"properties":{"LAD24CD":"E07000171"}},{"type":"Feature","geometry":{"type":"Polygon","coordinates":[[[452086.14,345925.76],[452514.05,344073.199999999],[453575.8943,343647.0878],[452052.2993,342921.999],[450661.2008,343285.604900001],[451678.8969,341416.1],[450694.1975,339798.403100001],[455078.8963,335856.8014],[453965.2029,334970.0952],[453162.2989,335258.7026],[452968.5976,334395.6996],[452537.1995,333406.3028],[451248.4965,333028.201099999],[450806.66,334209.050000001],[448399.15,335000],[448404.9975,339325.7984],[447627.2986,340031.7963],[447930.9972,341602.196799999],[446573.1073,345367.3521],[444901.21,348403.15],[444613.7041,350838.203],[446793.5993,349626],[448040.302,350344.0045],[450154.5006,349427.196900001],[451808.7979,347547.9048],[452086.14,345925.76]]]},"properties":{"LAD24CD":"E07000172"}},{"type":"Feature","geometry":{"type":"Polygon","coordinates":[[[466755.2962,343582.9998],[466127.6987,342994.2983],[464712.0959,343346.7974],[464498.3014,339752.2963],[462350.1002,340234.498299999],[461502.104,339409.104499999],[459192.0027,341522.5996],[458990.7985,343260.402100001],[457664.3001,343558.296800001],[457937.0962,344513.4034],[456900.2962,344761.602399999],[457567.6789,345806.986500001],[454920.7972,347117.797900001],[454929.2979,350437.397700001],[452559.14,350478.51],[451612.6973,351920.5032],[451952.501,354086.303200001],[456051.6981,356554.4967],[457727.9025,356171.0965],[457679.9987,355359.0989],[458993.7997,354751.7028],[458358.6991,353281.9035],[461152.9998,353757.8972],[460843.6039,352616.7039],[461720.3013,350972.004699999],[465176.804,347878.3003],[463673.2017,346329.2037],[464913.5969,345718.7984],[464656.9034,344686.304],[466755.2962,343582.9998]]]},"properties":{"LAD24CD":"E07000173"}},{"type":"Feature","geometry":{"type":"Polygon","coordinates":[[[455123.7989,357827.802200001],[450943.0005,360538.1964],[450855.8007,362040.296399999],[449895.0038,362199.300899999],[449576.0023,363293.397700001],[450861.597,364883.502599999],[453760.1,365600.1],[452887.6733,369248.523499999],[458594.3018,370089.102499999],[459948.3964,371325.5985],[460527.7026,370554.7992],[459469.6964,367238.398499999],[456709.1015,364558.195699999],[459543.9019,362177.0973],[458283.6031,360847.697799999],[458978.2001,358348.7031],[457173.7025,358646.697799999],[455123.7989,357827.802200001]]]},"properties":{"LAD24CD":"E07000174"}},{"type":"Feature","geometry":{"type":"Polygon","coordinates":[[[489087.8028,372235.2981],[488512.8994,369770.003799999],[487055.7992,370031.798900001],[485936.9032,368606.197000001],[484874.4034,368937.6021],[482694.6978,365763.6006],[485769.7016,365229.3036],[486036.3964,360737.999199999],[484914.9031,359707.5042],[485985.3017,358433.898800001],[485160.4988,356384.795299999],[487533.5016,352909.800000001],[486305.4987,352860.5041],[486135.9967,352079.897600001],[483908.7996,351601.804400001],[483202.5029,348729.196699999],[481359.0969,348301.899],[480890.4971,346596.497199999],[480332.7022,346799.3991],[482131.5024,342870.503699999],[480931.9038,342828.8956],[479845.9962,340667.0045],[479358.8038,340992.801200001],[478267.2979,341804.698799999],[479639.2019,343800.997400001],[479090.4023,345497.1019],[476278.1027,346604.404899999],[475265.1969,346033.0984],[473179.4026,349291.795600001],[468843.3002,343709.003699999],[466755.2962,343582.9998],[464656.9034,344686.304],[464913.5969,345718.7984],[463673.2017,346329.2037],[465176.804,347878.3003],[461720.3013,350972.004699999],[460843.6039,352616.7039],[461152.9998,353757.8972],[458358.6991,353281.9035],[458993.7997,354751.7028],[457679.9987,355359.0989],[457727.9025,356171.0965],[456051.6981,356554.4967],[455123.7989,357827.802200001],[457173.7025,358646.697799999],[458978.2001,358348.7031],[458283.6031,360847.697799999],[459543.9019,362177.0973],[456709.1015,364558.195699999],[459469.6964,367238.398499999],[460527.7026,370554.7992],[459948.3964,371325.5985],[464960.0001,374220.199999999],[466373.6983,371489.401699999],[469009.4959,371417.202299999],[470378.5966,370379.6993],[470287.1011,369075.3027],[473921.4993,370192.902799999],[476372.5993,368955.696900001],[477563.7963,369721.897600001],[478814.3989,367787.3014],[481098.0005,368183.198000001],[481576.2965,367282.4959],[481699.9972,372905.0964],[484507.8033,372616.2991],[484550.1004,373744.2962],[487618.2031,374287.8006],[489087.8028,372235.2981]]]},"properties":{"LAD24CD":"E07000175"}},{"type":"Feature","geometry":{"type":"Polygon","coordinates":[[[479358.8038,340992.801200001],[478452.3995,339355.299900001],[479101.4013,338910.6972],[476562.5985,335679.202199999],[476929.5037,334853.6985],[472996.76,331814.66],[471399.2146,331563.1556],[472254.3974,330380.198999999],[470178.15,327872.4],[468999.0989,327512.799799999],[468651.0996,325275.700200001],[466005.8037,325392.196799999],[465040.4533,324694.829399999],[462661.2029,324453.295600001],[462464.0965,325642.895099999],[459607.0014,325034.099300001],[458685.3025,323493.100400001],[456501.4991,323544.595699999],[454200.2036,321614.7981],[452298.703,321846.102],[451703.5002,323000.3015],[449845.6844,323908.5176],[448979.802,326756.896199999],[449373.8005,330903.7992],[451239.3033,331672.999],[451248.4965,333028.201099999],[452537.1995,333406.3028],[452968.5976,334395.6996],[455502.52,332712.17],[456697.5,333950.699999999],[457071.1009,338070.4977],[457777.1008,337518.4957],[458442.9967,338730.998600001],[460600.1025,338663.9978],[461502.104,339409.104499999],[462350.1002,340234.498299999],[464498.3014,339752.2963],[464712.0959,343346.7974],[466127.6987,342994.2983],[466755.2962,343582.9998],[468843.3002,343709.003699999],[473179.4026,349291.795600001],[475265.1969,346033.0984],[476278.1027,346604.404899999],[479090.4023,345497.1019],[479639.2019,343800.997400001],[478267.2979,341804.698799999],[479358.8038,340992.801200001]]]},"properties":{"LAD24CD":"E07000176"}},{"type":"Feature","geometry":{"type":"Polygon","coordinates":[[[403166.4,307217.5],[402738.1023,305007.102],[401006.7962,304738.898800001],[399820.8018,307883.898499999],[396588.9028,308999.999],[396403.9991,310263.1975],[397997.45,311942.199999999],[398287.0968,315407.9048],[398910.2008,317960.304199999],[401910.0014,318215.6011],[403877.5654,319571.7173],[406059.9962,317964.503],[406117.1015,317065.700300001],[404305.1009,313179.502699999],[405804.8033,312554.3016],[402851.3977,309605.095799999],[403166.4,307217.5]]]},"properties":{"LAD24CD":"E07000192"}},{"type":"Feature","geometry":{"type":"Polygon","coordinates":[[[417194.9018,330163.201099999],[418592.74,329164.109999999],[419990.21,329952.57],[420254.3966,329272.796],[421000,329712.109999999],[425229.66,328614.6],[428031.07,326086.76],[426345.7,324382.449999999],[427619.9,323602.699999999],[427816.0988,322555.698799999],[426105.397,321256.7006],[426326.3977,320493.598999999],[422587.4026,320844.0987],[420074.0029,314976.8982],[416935.001,315751.396500001],[415802.23,317049.57],[414639.9965,316489.7951],[414234.4961,317371.2028],[412412.1974,317522.499500001],[411674.5,319063.35],[412945.3973,320633.2991],[412380.0005,321742.3016],[410726.5029,322050.603399999],[409962.3012,320534.997199999],[407524.73,322535.800000001],[406708.8001,321975.7048],[403377.9026,323319.000299999],[402261.8017,325202.0013],[404359.81,327850.189999999],[404404.33,330363.59],[402743.36,330312.35],[401465.403,332868.296800001],[400116.8985,332755.699100001],[399239.5003,334348.0033],[397302.537,335560.399900001],[402038.2038,338153.9038],[404095.899,337118.9001],[405010.1031,338212.1971],[406133.0969,338048.0041],[406578.1983,338738.6964],[405103.396,340647.899900001],[409503.7027,342276.2038],[408111.5983,344146.2985],[407870.5,346982.02],[408714.39,346971.35],[409751.4008,348542.9],[411465.92,348420.17],[412629.1992,348025.598099999],[413779.82,346229.789999999],[414533.68,347493.189999999],[413855.63,349135.02],[414914.3014,349759.8017],[416261.701,348918.4025],[416042.5968,344750.5956],[411728.3026,342205.0042],[411614.59,338954.76],[409739.4,336222.25],[411656.9993,331897.2048],[415088.2969,331838.4016],[417194.9018,330163.201099999]]]},"properties":{"LAD24CD":"E07000193"}},{"type":"Feature","geometry":{"type":"Polygon","coordinates":[[[420074.0029,314976.8982],[423290.4013,313842.003],[423406.92,311287.060000001],[427293.197,311490.2962],[427835.1037,310029.304400001],[424110.42,306697.25],[421451.6,305543.1],[418874.0992,305995.698999999],[418063.1974,305237.1961],[418280.14,303920.92],[420269.45,302035.65],[420986.1166,302224.136600001],[420398.7,299271.800000001],[418439.04,298937.82],[417553.94,299642.91],[414459.3379,298918.633099999],[413878.2023,300165.597899999],[411735.3027,301227.8038],[410009.8879,300484.4748],[408730.9013,298576.7027],[407393.7008,300154.900900001],[407815.34,301960.57],[405782.5005,304172.200999999],[406519.0977,305054.2985],[405636.1134,305803.342900001],[406125.1982,306532.4954],[404583.39,307096.57],[403786.91,306510.710000001],[403166.4,307217.5],[402851.3977,309605.095799999],[405804.8033,312554.3016],[404305.1009,313179.502699999],[406117.1015,317065.700300001],[406059.9962,317964.503],[403877.5654,319571.7173],[402923.48,322326.130000001],[403377.9026,323319.000299999],[406708.8001,321975.7048],[407524.73,322535.800000001],[409962.3012,320534.997199999],[410726.5029,322050.603399999],[412380.0005,321742.3016],[412945.3973,320633.2991],[411674.5,319063.35],[412412.1974,317522.499500001],[414234.4961,317371.2028],[414639.9965,316489.7951],[415802.23,317049.57],[416935.001,315751.396500001],[420074.0029,314976.8982]]]},"properties":{"LAD24CD":"E07000194"}},{"type":"Feature","geometry":{"type":"Polygon","coordinates":[[[387965.24,354750.300000001],[386799.81,355074.84],[384100.6034,352925.5955],[386512.1024,346979.797499999],[385637.5487,346462.070599999],[386377.5018,342690.395300001],[385828.5012,342600.4246],[381951.7014,340711.6017],[381417.1524,339350.8202],[382343.96,336283.26],[378593.6035,337271.7963],[376742.36,335243.15],[376033.91,335740.439999999],[374600.43,335119.9],[374602.2024,332762.2972],[370459.1004,331618.604499999],[370071.51,330817.32],[368432.8,334372.1],[370749.79,338585.560000001],[371531.48,339264.220000001],[372849.92,338956.77],[372360.98,340567.4],[374149.903,339605.8982],[374599.399,342145.201300001],[375339.0965,342507.797499999],[374540.3974,344631.399700001],[374394.8968,345675.2009],[375245.78,346420.84],[374326.504,347720.395400001],[374526.29,350646],[376800.3027,351045.503599999],[378792.01,353843.83],[380443.8034,353494.002699999],[383138.0998,355224.7974],[383526.65,354766.550000001],[385953.4007,357646.1043],[387965.24,354750.300000001]]]},"properties":{"LAD24CD":"E07000195"}},{"type":"Feature","geometry":{"type":"Polygon","coordinates":[[[398287.0968,315407.9048],[397997.45,311942.199999999],[396403.9991,310263.1975],[396588.9028,308999.999],[399820.8018,307883.898499999],[401006.7962,304738.898800001],[398097.55,303096.310000001],[398053.8116,302130.103399999],[396663.1001,302527.901699999],[394611.8031,301571.195499999],[393245.0028,304147.8979],[391188.0003,304437.095100001],[388699.4017,302480.7951],[388641.9996,301296.1042],[386796.5983,300997.899599999],[387279.7011,299012.097999999],[386091.95,298608.4],[387875.2007,297423.2028],[388195.1997,295186.802999999],[391046.0038,295142.795600001],[390899.4973,292962.1998],[389769.8992,291989.498199999],[390310.701,291029.303099999],[387067.65,289521.5],[388723.9967,285967.901900001],[388103.8032,284109.603800001],[388887.9992,281369.3982],[388692.2038,280655.3026],[381775.9002,282326.5042],[380049.9039,283482.5033],[380567.9988,284188.9011],[378860.6033,287966],[380321.0015,290459.496200001],[382392.301,291833.402899999],[381833.797,292568.102600001],[382705.72,293794.390000001],[380944.0972,295097.398600001],[382343.0038,296834.501399999],[379754.4998,299510.6953],[378282.6987,299584.804099999],[378172.0994,301734.0989],[381027.3971,300934.5977],[382749.9965,301364.704600001],[384339.8009,305574.7995],[384220.0002,306482.899599999],[383342.4041,306575.503],[383951.9038,307356.6994],[383351.98,309510.310000001],[379610.4998,309514.6017],[378476.3999,310903.904100001],[378148.5021,312010.8972],[379252.4993,313720.297900001],[378783.41,315078.789999999],[379018.7577,315956.315099999],[381533.53,316159.210000001],[383521.84,313085.109999999],[385457.1963,315051.796700001],[387390.22,315039.74],[388082.06,316275.789999999],[389249.28,316132.08],[390179.38,320559.77],[392375.824,319022.217],[393424.86,319514.1],[393678.7013,320986.697899999],[395646.6984,319550.9989],[394957.7988,318819.7982],[397168.0029,318192.9976],[398287.0968,315407.9048]]]},"properties":{"LAD24CD":"E07000196"}},{"type":"Feature","geometry":{"type":"Polygon","coordinates":[[[394178.8665,341834.4945],[397205.8972,339329.2974],[395861.84,336117.48],[397302.537,335560.399900001],[399239.5003,334348.0033],[400116.8985,332755.699100001],[401465.403,332868.296800001],[402743.36,330312.35],[404404.33,330363.59],[404359.81,327850.189999999],[402261.8017,325202.0013],[403377.9026,323319.000299999],[402923.48,322326.130000001],[403877.5654,319571.7173],[401910.0014,318215.6011],[398910.2008,317960.304199999],[398287.0968,315407.9048],[397168.0029,318192.9976],[394957.7988,318819.7982],[395646.6984,319550.9989],[393678.7013,320986.697899999],[393424.86,319514.1],[392375.824,319022.217],[390179.38,320559.77],[389249.28,316132.08],[388082.06,316275.789999999],[387390.22,315039.74],[385457.1963,315051.796700001],[383521.84,313085.109999999],[381533.53,316159.210000001],[379018.7577,315956.315099999],[374131.08,321403.27],[375058.77,322034.18],[374641.6962,323853.8971],[372043.6032,325577.3038],[373571.6027,326638.200200001],[374602.2024,332762.2972],[374600.43,335119.9],[376033.91,335740.439999999],[376742.36,335243.15],[378593.6035,337271.7963],[382343.96,336283.26],[381417.1524,339350.8202],[381951.7014,340711.6017],[385828.5012,342600.4246],[387897.05,338766.119999999],[388218.08,339603.58],[389173.3031,339564.800000001],[390312.8035,342092.5964],[391339.7011,341541.7041],[391924.2018,339862.004899999],[394641.36,341061.17],[394178.8665,341834.4945]]]},"properties":{"LAD24CD":"E07000197"}},{"type":"Feature","geometry":{"type":"Polygon","coordinates":[[[406865.27,366998.85],[409396.99,365715.42],[412628.06,361933.93],[412014.46,359960.52],[414579.82,356215.560000001],[413877.8972,354593.2981],[415132.8038,351366.501700001],[414914.3014,349759.8017],[413855.63,349135.02],[414533.68,347493.189999999],[413779.82,346229.789999999],[412629.1992,348025.598099999],[411465.92,348420.17],[409751.4008,348542.9],[408714.39,346971.35],[407870.5,346982.02],[408111.5983,344146.2985],[409503.7027,342276.2038],[405103.396,340647.899900001],[406578.1983,338738.6964],[406133.0969,338048.0041],[405010.1031,338212.1971],[404095.899,337118.9001],[402038.2038,338153.9038],[397302.537,335560.399900001],[395861.84,336117.48],[397205.8972,339329.2974],[394178.8665,341834.4945],[394776.1024,341906.299699999],[393920.95,343138.65],[394156.11,344417.460000001],[393048.9,344484.85],[393154.9997,345953.101299999],[391795.25,347149.1],[391262.8984,350013.9989],[392281.6994,350089.997199999],[391695.7042,351935.6634],[389302.9,352548.85],[388597.8968,354704.5963],[387965.24,354750.300000001],[385953.4007,357646.1043],[389696.76,362512.33],[390640.38,362172.060000001],[390717.17,365202.01],[392618.65,363506.18],[395403.36,363838.210000001],[397016.4,366186.890000001],[399980.22,366205.73],[400939.8642,368502.888699999],[402609.702,369909.503900001],[402988.1998,368519.7017],[406865.27,366998.85]]]},"properties":{"LAD24CD":"E07000198"}},{"type":"Feature","geometry":{"type":"Polygon","coordinates":[[[420398.7,299271.800000001],[420986.1166,302224.136600001],[420269.45,302035.65],[418280.14,303920.92],[418063.1974,305237.1961],[418874.0992,305995.698999999],[421451.6,305543.1],[424110.42,306697.25],[424930.4,305143.68],[424285.16,304859.630000001],[424221.9035,300676.3017],[422747.1012,299434.1972],[420398.7,299271.800000001]]]},"properties":{"LAD24CD":"E07000199"}},{"type":"Feature","geometry":{"type":"Polygon","coordinates":[[[430408.8984,307841.400699999],[430915.4997,305302.997300001],[429105.7995,304253.297800001],[430263.7,301978.800000001],[429853.4,299902.42],[432135.1999,298428.2952],[432446.96,297060.880000001],[436711.7035,294995.4978],[434913.0022,293736.3982],[430212.4,292753.300000001],[430408.67,290703.91],[433074.64,287338.439999999],[433050.4016,286590.603700001],[430991.2966,286175.602499999],[431999.5026,285932.702],[431352.54,285304.26],[429915.1017,284229.6994],[427962.597,284962.399700001],[427584.1982,284293.701099999],[425611.6003,285130.601600001],[424458.3966,282870.298599999],[423051.0966,282977.8978],[422763.4017,281994.599300001],[422044.4983,282089.801999999],[416824,290590.5],[416801.1012,291508.296],[418491.3964,291886.897600001],[417117.7033,292645.000600001],[416639.803,295308.598200001],[415400.4962,296333.004899999],[416118.35,297034.16],[414459.3379,298918.633099999],[417553.94,299642.91],[418439.04,298937.82],[420398.7,299271.800000001],[422747.1012,299434.1972],[424221.9035,300676.3017],[424285.16,304859.630000001],[424930.4,305143.68],[424110.42,306697.25],[427835.1037,310029.304400001],[430408.8984,307841.400699999]]]},"properties":{"LAD24CD":"E07000218"}},{"type":"Feature","geometry":{"type":"Polygon","coordinates":[[[439618.9038,293111.9969],[438853.3004,291074.100299999],[440444.3993,290746.903899999],[440507.5977,286658.5042],[440150.8999,285564.1975],[438300.9967,285714.204500001],[436855.9013,284269.3981],[434615.3,284636.34],[433736.6,283680.949999999],[431352.54,285304.26],[431999.5026,285932.702],[430991.2966,286175.602499999],[433050.4016,286590.603700001],[433074.64,287338.439999999],[430408.67,290703.91],[430212.4,292753.300000001],[434913.0022,293736.3982],[436711.7035,294995.4978],[439618.9038,293111.9969]]]},"properties":{"LAD24CD":"E07000219"}},{"type":"Feature","geometry":{"type":"Polygon","coordinates":[[[445909.1406,289451.126800001],[447218.896,288611.495200001],[454419.7193,277932.977399999],[456285.0003,273454.7038],[452290.94,272312.119999999],[450161.2038,270281.801999999],[454001.5966,268858.6994],[452357.3995,266073.796499999],[453623.18,263424.550000001],[452454.5016,261951.296599999],[450641.54,262287.34],[448691.2001,264178.4991],[447261.0036,262367.897299999],[441750.4994,267144.300100001],[439684.7983,267449.502699999],[440518.32,269171.76],[438533.796,270183.800100001],[437996.6962,272083.896199999],[437140.2982,272215.498500001],[437689.5018,272987.1976],[436537.4029,273468],[436586.1972,275157.996200001],[438785.1,277792.800000001],[438328.8,279297.800000001],[439262.0988,281820.698999999],[436855.9013,284269.3981],[438300.9967,285714.204500001],[440150.8999,285564.1975],[440507.5977,286658.5042],[440444.3993,290746.903899999],[438853.3004,291074.100299999],[439618.9038,293111.9969],[445909.1406,289451.126800001]]]},"properties":{"LAD24CD":"E07000220"}},{"type":"Feature","geometry":{"type":"Polygon","coordinates":[[[415369.3156,272232.3708],[416346.0975,267790.6951],[418249.8986,266185.604499999],[418934.1974,266738.0964],[421551.7982,265007.0019],[422768.3982,265312.4045],[422172.7997,263558.4965],[422675.0971,262253.300100001],[424263.9039,262290.8994],[425951.8613,260766.8726],[425713.67,260089.960000001],[426936.4003,260037.6044],[425649.6018,258739.9958],[425975.8012,257353.7026],[427280.9036,258634.2961],[429173.7965,257637.2015],[430143.0035,259361.597899999],[432323.6984,258652.7008],[433281.4035,260514.897700001],[434241.3018,260049.1011],[435746.7015,262746.198999999],[438633.8004,263996.701099999],[437711.2028,266357.1954],[439329.9968,266393.1951],[439684.7983,267449.502699999],[441750.4994,267144.300100001],[447261.0036,262367.897299999],[448691.2001,264178.4991],[450641.54,262287.34],[452454.5016,261951.296599999],[450163.84,259924.220000001],[448939.5,260267.199999999],[451017.1978,255770.695800001],[447050.4,254912.4014],[445790.299,252455.4047],[444673.8023,248735.2996],[443479.2991,248829.602600001],[441636.6021,246910.402000001],[443175.7984,246764.603700001],[444086.8034,244967.998],[442201.0013,244154.7008],[439408.3991,246812.899900001],[437522.8031,246215.400900001],[437965.2001,244507.5998],[435899.4001,244906.695499999],[435185.7983,244079.202400001],[432857.3023,233261.5989],[430499.1983,232669.8983],[431033.76,231470.67],[430075.3033,231041.5044],[427550.3028,231016.001700001],[428149.7022,230297.2974],[426736.004,228615.9987],[423049.2002,232166.4024],[423044.36,233269.279999999],[426334.68,237288.640000001],[425855.3,237904.26],[423159.2,237036.1],[421086.4964,237945.7981],[421447.2014,239315.9959],[420318,240178.9],[420541.9,241648.1],[419762.4,240946.300000001],[418557,241691.199999999],[418689.5005,244675.8016],[417504.18,243860.630000001],[416004.6346,246052.2048],[416708.303,246428.899800001],[414405.8037,246894.3967],[414775.504,248215.1985],[413206.6998,249080.300899999],[412195.8965,248689.2028],[412184.4029,249750.598999999],[411065.6965,250503.103599999],[410075.7038,248922.3961],[409200.9028,250532.0953],[407637.4001,250886.004000001],[407333.7015,249999.9976],[407957.3992,249845.401900001],[406703.3996,248352.8991],[405443.1001,250520.7356],[403906.8975,250783.903200001],[404508.9024,252366.5002],[402804.3019,252266.798699999],[404087.0026,253239.2004],[404498.6,256210.800000001],[405735.0996,257776.4016],[404560.3021,261538.504699999],[404367.4108,264219.9583],[405829.3984,264099.9016],[407838.08,265401.08],[408212.5,268089.4],[409053.92,268503.16],[409303.96,270564.630000001],[407657.1965,273674.900699999],[408810.43,274401.57],[413183.3003,274299.801899999],[415369.3156,272232.3708]]]},"properties":{"LAD24CD":"E07000221"}},{"type":"Feature","geometry":{"type":"Polygon","coordinates":[[[436586.1972,275157.996200001],[436537.4029,273468],[437689.5018,272987.1976],[437140.2982,272215.498500001],[437996.6962,272083.896199999],[438533.796,270183.800100001],[440518.32,269171.76],[439684.7983,267449.502699999],[439329.9968,266393.1951],[437711.2028,266357.1954],[438633.8004,263996.701099999],[435746.7015,262746.198999999],[434241.3018,260049.1011],[433281.4035,260514.897700001],[432323.6984,258652.7008],[430143.0035,259361.597899999],[429173.7965,257637.2015],[427280.9036,258634.2961],[425975.8012,257353.7026],[425649.6018,258739.9958],[426936.4003,260037.6044],[425713.67,260089.960000001],[425951.8613,260766.8726],[424263.9039,262290.8994],[422675.0971,262253.300100001],[422172.7997,263558.4965],[422768.3982,265312.4045],[421551.7982,265007.0019],[418934.1974,266738.0964],[418249.8986,266185.604499999],[416346.0975,267790.6951],[415369.3156,272232.3708],[415103.38,274045.880000001],[417400.92,273007.880000001],[418122.9988,274699.5974],[419126.9999,274982.0966],[419266.0163,273119.418299999],[420947.0972,272591.800799999],[421591.55,273944.16],[423186.9999,274232.101199999],[424040.8997,273243.204299999],[425800.0989,274300.001800001],[427245.7962,276881.2029],[429526.0008,276381.396],[430574.4015,274074.396400001],[432453.5004,275811.4991],[433190.38,274661.619999999],[433826.501,275643.397299999],[436586.1972,275157.996200001]]]},"properties":{"LAD24CD":"E07000222"}},{"type":"Feature","geometry":{"type":"Polygon","coordinates":[[[398941.4001,281632.402899999],[401046.1993,279857.401000001],[397807.696,278256.3993],[400195.2,275897.15],[403252.9982,277260.4044],[404566.8981,276579.099400001],[405969.0037,278830.604900001],[408077.7029,277982.4977],[409024.5,278529.050000001],[410608.6975,277983.7973],[408810.43,274401.57],[407657.1965,273674.900699999],[409303.96,270564.630000001],[409053.92,268503.16],[408212.5,268089.4],[407466.6037,269262.2039],[403162.8,269206.039999999],[401323.2993,267797.6031],[401177.403,265994.9991],[399958.7994,265554.2952],[399928.5978,264602.4977],[393835.41,265606.68],[394290.7981,268378.596799999],[391639.5987,268494.003799999],[392377.9027,271013.2026],[391140.6983,272118.496300001],[391396.7982,272691.802100001],[390753.197,272441.8037],[391977.704,273319.4025],[390726.3016,277327.1953],[391507.4964,278371.896199999],[390979.1034,279151.1032],[389330.8002,279041.4046],[388692.2038,280655.3026],[388887.9992,281369.3982],[390847.001,280927.504699999],[393397.1984,283038.500399999],[394331.33,281576.609999999],[395470.0975,281913.9024],[395848.9993,281049.899700001],[396304.7038,282592.898],[397521.6006,282620.100199999],[397581.501,281061.496300001],[398941.4001,281632.402899999]]]},"properties":{"LAD24CD":"E07000234"}},{"type":"Feature","geometry":{"type":"Polygon","coordinates":[[[381938.7979,269532.796399999],[381327.0968,263824.3004],[382906.496,263205.797499999],[384269.3963,261326.995300001],[383478.1012,258209.3978],[384047.2001,257050.999199999],[383098.004,256975.501],[382199.1,253772.65],[382821.6,253951.35],[383186.9478,252401.755899999],[384522.779,251729.889],[386186.9013,252135.077299999],[387124.1003,249763.5953],[388810.2978,249404.597999999],[386650.2979,247408.499399999],[389907.6,244999.9988],[389247.8961,242919.104499999],[389817.3001,241905.3047],[389255.3002,240327.1964],[388070.9961,240043.4976],[388343.9109,238814.8177],[387703.8023,238162.0962],[387957.4039,236029.396600001],[387216.8985,235644.2969],[388793.0986,233089.2982],[387687.4029,233478.096899999],[387387.2002,232471.805],[384949.2016,233027.595899999],[382827.096,229816.595000001],[381509.2962,230085.3981],[379455.7977,229852.8047],[378623.2032,230938.503900001],[377666.8009,230863.295399999],[377806.2001,233952.101299999],[375900.9974,235069.701300001],[375985.097,235939.5024],[376941.1036,243556.901900001],[375976.5963,245074.297599999],[376049.9032,249649.697899999],[374141.18,250819.550000001],[371698.11,249732.76],[370332.5564,252305.152899999],[371231.96,252759.01],[372220.5,256134.1],[373263.897,256781.6964],[372503.71,258217.07],[373853.18,258625.880000001],[371205.68,259977.91],[368341.85,259677.060000001],[367682.8976,260457.304199999],[368144.2995,262087.0977],[370891.2982,263690.998600001],[369304.0992,265310.494999999],[365770.802,264484.701400001],[366264.07,262196.35],[364192.72,261238.68],[363802.4998,261809.8971],[360898.5975,261771.3981],[357148.2985,260427.9026],[357214.3002,262740.1008],[359305.5033,264997.5046],[356448.42,265544.050000001],[354875.21,267520.49],[357953.97,267826.390000001],[360923.89,268989.050000001],[361743,268256.4],[361786.302,270705.300799999],[363367.3996,271920.302999999],[365202.6018,271125.1006],[365123.103,270247.301899999],[367264.8977,270439.8967],[366834.3,273148.5],[367771.5,274452.48],[371861.08,274546.07],[371409.5993,270634.601],[370507.4989,269482.6008],[374889.8973,269920.295499999],[375331.7996,268587.7969],[377328.4978,269031.199999999],[378912.8027,271429.703400001],[379706.2002,269403.003599999],[381431.603,270127.1963],[381938.7979,269532.796399999]]]},"properties":{"LAD24CD":"E07000235"}},{"type":"Feature","geometry":{"type":"Polygon","coordinates":[[[408212.5,268089.4],[407838.08,265401.08],[405829.3984,264099.9016],[404367.4108,264219.9583],[404560.3021,261538.504699999],[402307.51,259870.539999999],[398953.2977,259896.8047],[399036.6965,263537.002699999],[399928.5978,264602.4977],[399958.7994,265554.2952],[401177.403,265994.9991],[401323.2993,267797.6031],[403162.8,269206.039999999],[407466.6037,269262.2039],[408212.5,268089.4]]]},"properties":{"LAD24CD":"E07000236"}},{"type":"Feature","geometry":{"type":"Polygon","coordinates":[[[386186.9013,252135.077299999],[384522.779,251729.889],[383186.9478,252401.755899999],[382821.6,253951.35],[382199.1,253772.65],[383098.004,256975.501],[384047.2001,257050.999199999],[383478.1012,258209.3978],[384963.3998,259267.005000001],[389376.05,257234.630000001],[388413.4,254048.699999999],[386186.9013,252135.077299999]]]},"properties":{"LAD24CD":"E07000237"}},{"type":"Feature","geometry":{"type":"Polygon","coordinates":[[[390753.197,272441.8037],[391396.7982,272691.802100001],[391140.6983,272118.496300001],[392377.9027,271013.2026],[391639.5987,268494.003799999],[394290.7981,268378.596799999],[393835.41,265606.68],[399928.5978,264602.4977],[399036.6965,263537.002699999],[398953.2977,259896.8047],[402307.51,259870.539999999],[404560.3021,261538.504699999],[405735.0996,257776.4016],[404498.6,256210.800000001],[404087.0026,253239.2004],[402804.3019,252266.798699999],[404508.9024,252366.5002],[403906.8975,250783.903200001],[405443.1001,250520.7356],[406703.3996,248352.8991],[407957.3992,249845.401900001],[407333.7015,249999.9976],[407637.4001,250886.004000001],[409200.9028,250532.0953],[410075.7038,248922.3961],[411065.6965,250503.103599999],[412184.4029,249750.598999999],[412195.8965,248689.2028],[413206.6998,249080.300899999],[414775.504,248215.1985],[414405.8037,246894.3967],[416708.303,246428.899800001],[416004.6346,246052.2048],[413640.2003,244305.997500001],[412929.6987,242280.0974],[412502.4973,243019.795700001],[411628.0014,241612.398499999],[410607.502,242349.997400001],[408705.1025,241297.4987],[409459.5998,239455.4959],[411441.0034,238382.403100001],[412100.5011,236960.3002],[411144.0988,234271.999700001],[406032.499,238454.102600001],[404782.24,236832.02],[403431.96,237699.630000001],[401184.502,237496.196799999],[397463.2998,234017.8025],[396697.3006,233928.797900001],[395924.97,235138.08],[394270.9028,234674.304500001],[392396.2975,235218.0989],[390437.6997,233455.203500001],[389824.6959,234767.9977],[390532.3035,236616.898499999],[392054.9025,237250.697000001],[391976.418,238196.502599999],[388343.9109,238814.8177],[388070.9961,240043.4976],[389255.3002,240327.1964],[389817.3001,241905.3047],[389247.8961,242919.104499999],[389907.6,244999.9988],[386650.2979,247408.499399999],[388810.2978,249404.597999999],[387124.1003,249763.5953],[386186.9013,252135.077299999],[388413.4,254048.699999999],[389376.05,257234.630000001],[384963.3998,259267.005000001],[383478.1012,258209.3978],[384269.3963,261326.995300001],[382906.496,263205.797499999],[381327.0968,263824.3004],[381938.7979,269532.796399999],[382352.7989,270054.1972],[381577.2025,270538.1986],[383099.1995,271983.205],[383365.9025,273691.296],[385757.07,273031.83],[387116.23,270110.73],[388444.44,270419.220000001],[388196.93,268735.369999999],[390753.197,272441.8037]]]},"properties":{"LAD24CD":"E07000238"}},{"type":"Feature","geometry":{"type":"Polygon","coordinates":[[[388692.2038,280655.3026],[389330.8002,279041.4046],[390979.1034,279151.1032],[391507.4964,278371.896199999],[390726.3016,277327.1953],[391977.704,273319.4025],[390753.197,272441.8037],[388196.93,268735.369999999],[388444.44,270419.220000001],[387116.23,270110.73],[385757.07,273031.83],[383365.9025,273691.296],[383099.1995,271983.205],[381577.2025,270538.1986],[382352.7989,270054.1972],[381938.7979,269532.796399999],[381431.603,270127.1963],[379706.2002,269403.003599999],[378912.8027,271429.703400001],[377328.4978,269031.199999999],[375331.7996,268587.7969],[374889.8973,269920.295499999],[370507.4989,269482.6008],[371409.5993,270634.601],[371861.08,274546.07],[372160.5017,276647.299900001],[373504.7023,276014.1011],[375095.8012,276732.695499999],[377258.44,276418.98],[374722.3,278277.539999999],[375384.7988,282444.600400001],[378903.6013,282217.395500001],[380567.9988,284188.9011],[380049.9039,283482.5033],[381775.9002,282326.5042],[388692.2038,280655.3026]]]},"properties":{"LAD24CD":"E07000239"}},{"type":"Feature","geometry":{"type":"Polygon","coordinates":[[[414459.3379,298918.633099999],[416118.35,297034.16],[415400.4962,296333.004899999],[416639.803,295308.598200001],[417117.7033,292645.000600001],[418491.3964,291886.897600001],[416801.1012,291508.296],[416824,290590.5],[413709.7969,289616.6975],[416675.397,289090.3981],[416433.8991,283798.203],[415106.1969,283598.600099999],[413664.9025,284500.202],[411342.7965,279948.8049],[410674.4024,279148.6039],[409167.601,279233.7995],[409024.5,278529.050000001],[408077.7029,277982.4977],[405969.0037,278830.604900001],[404566.8981,276579.099400001],[403252.9982,277260.4044],[400195.2,275897.15],[397807.696,278256.3993],[401046.1993,279857.401000001],[398941.4001,281632.402899999],[399196.7991,284914.603399999],[401598.1979,285468.105],[402540.9959,287117.003],[403439.4025,287257.8027],[404296.6992,288946.7992],[402606.404,289665.603499999],[402675.9016,292281.704600001],[404882.9186,292604.939200001],[404630.0965,294218.3003],[405646.5971,294385.5024],[408316.9993,296850.696699999],[408730.9013,298576.7027],[410009.8879,300484.4748],[411735.3027,301227.8038],[413878.2023,300165.597899999],[414459.3379,298918.633099999]]]},"properties":{"LAD24CD":"E08000025"}},{"type":"Feature","geometry":{"type":"Polygon","coordinates":[[[436855.9013,284269.3981],[439262.0988,281820.698999999],[438328.8,279297.800000001],[438785.1,277792.800000001],[436586.1972,275157.996200001],[433826.501,275643.397299999],[433190.38,274661.619999999],[432453.5004,275811.4991],[430574.4015,274074.396400001],[429526.0008,276381.396],[427245.7962,276881.2029],[427154.1028,279857.1011],[426312.1997,281177.5031],[426725.7967,282389.1963],[427611.7037,282514.8003],[427584.1982,284293.701099999],[427962.597,284962.399700001],[429915.1017,284229.6994],[431352.54,285304.26],[433736.6,283680.949999999],[434615.3,284636.34],[436855.9013,284269.3981]]]},"properties":{"LAD24CD":"E08000026"}},{"type":"Feature","geometry":{"type":"Polygon","coordinates":[[[395082.8022,294671.2006],[394696.6036,291802.3018],[396210.8008,290486.7984],[395728.8028,287694.897600001],[393500.8965,285609.104599999],[396086.8033,284892.1998],[398551.5984,286957.0988],[399196.7991,284914.603399999],[398941.4001,281632.402899999],[397581.501,281061.496300001],[397521.6006,282620.100199999],[396304.7038,282592.898],[395848.9993,281049.899700001],[395470.0975,281913.9024],[394331.33,281576.609999999],[393397.1984,283038.500399999],[390847.001,280927.504699999],[388887.9992,281369.3982],[388103.8032,284109.603800001],[388723.9967,285967.901900001],[387067.65,289521.5],[390310.701,291029.303099999],[389769.8992,291989.498199999],[390899.4973,292962.1998],[391046.0038,295142.795600001],[391862.3968,295460.4047],[392755.7986,294013.9987],[394681.27,295470.960000001],[395082.8022,294671.2006]]]},"properties":{"LAD24CD":"E08000027"}},{"type":"Feature","geometry":{"type":"Polygon","coordinates":[[[405646.5971,294385.5024],[404630.0965,294218.3003],[404882.9186,292604.939200001],[402675.9016,292281.704600001],[402606.404,289665.603499999],[404296.6992,288946.7992],[403439.4025,287257.8027],[402540.9959,287117.003],[401598.1979,285468.105],[399196.7991,284914.603399999],[398551.5984,286957.0988],[396086.8033,284892.1998],[393500.8965,285609.104599999],[395728.8028,287694.897600001],[396210.8008,290486.7984],[394696.6036,291802.3018],[395082.8022,294671.2006],[396639.8985,294986.8003],[399352.5978,296802.8005],[401758.0037,295300.8004],[402527.3009,296153.896199999],[403414.0984,295443.1996],[404575.9017,295800.1974],[405646.5971,294385.5024]]]},"properties":{"LAD24CD":"E08000028"}},{"type":"Feature","geometry":{"type":"Polygon","coordinates":[[[427584.1982,284293.701099999],[427611.7037,282514.8003],[426725.7967,282389.1963],[426312.1997,281177.5031],[427154.1028,279857.1011],[427245.7962,276881.2029],[425800.0989,274300.001800001],[424040.8997,273243.204299999],[423186.9999,274232.101199999],[421591.55,273944.16],[420947.0972,272591.800799999],[419266.0163,273119.418299999],[419126.9999,274982.0966],[418122.9988,274699.5974],[417400.92,273007.880000001],[415103.38,274045.880000001],[415369.3156,272232.3708],[413183.3003,274299.801899999],[408810.43,274401.57],[410608.6975,277983.7973],[409024.5,278529.050000001],[409167.601,279233.7995],[410674.4024,279148.6039],[411342.7965,279948.8049],[413664.9025,284500.202],[415106.1969,283598.600099999],[416433.8991,283798.203],[416675.397,289090.3981],[413709.7969,289616.6975],[416824,290590.5],[422044.4983,282089.801999999],[422763.4017,281994.599300001],[423051.0966,282977.8978],[424458.3966,282870.298599999],[425611.6003,285130.601600001],[427584.1982,284293.701099999]]]},"properties":{"LAD24CD":"E08000029"}},{"type":"Feature","geometry":{"type":"Polygon","coordinates":[[[408730.9013,298576.7027],[408316.9993,296850.696699999],[405646.5971,294385.5024],[404575.9017,295800.1974],[403414.0984,295443.1996],[402527.3009,296153.896199999],[401758.0037,295300.8004],[399352.5978,296802.8005],[396639.8985,294986.8003],[395896.598,295601.404300001],[396706.5021,297146.0022],[394823.8991,298696.0985],[396398.6975,300339.4981],[396663.1001,302527.901699999],[398053.8116,302130.103399999],[398097.55,303096.310000001],[401006.7962,304738.898800001],[402738.1023,305007.102],[403166.4,307217.5],[403786.91,306510.710000001],[404583.39,307096.57],[406125.1982,306532.4954],[405636.1134,305803.342900001],[406519.0977,305054.2985],[405782.5005,304172.200999999],[407815.34,301960.57],[407393.7008,300154.900900001],[408730.9013,298576.7027]]]},"properties":{"LAD24CD":"E08000030"}},{"type":"Feature","geometry":{"type":"Polygon","coordinates":[[[396663.1001,302527.901699999],[396398.6975,300339.4981],[394823.8991,298696.0985],[396706.5021,297146.0022],[395896.598,295601.404300001],[396639.8985,294986.8003],[395082.8022,294671.2006],[394681.27,295470.960000001],[392755.7986,294013.9987],[391862.3968,295460.4047],[391046.0038,295142.795600001],[388195.1997,295186.802999999],[387875.2007,297423.2028],[386091.95,298608.4],[387279.7011,299012.097999999],[386796.5983,300997.899599999],[388641.9996,301296.1042],[388699.4017,302480.7951],[391188.0003,304437.095100001],[393245.0028,304147.8979],[394611.8031,301571.195499999],[396663.1001,302527.901699999]]]},"properties":{"LAD24CD":"E08000031"}}]}